X,Y,OBJECTID,FOLIO,NAME,ENTITYNAME,ADDRESS,CITY,ZIPCODE,PHONE,PHONE2,TYPE,CAPACITY,CAP_DESC,LAT,LON,POINT_X,POINT_Y
-8919678.1558,2974268.5507,1,0232270450001,1 HOTEL SOUTH BEACH,1 SB LESSEE LLC,2341 COLLINS AVE,MIAMI BEACH,33139,305-604-1000,,HOTL,425,Rooms,25.79949,-80.12683,943451.767626245,533767.653306991
-8920087.0263,2972626.9845,2,0232340080700,1425 COLLINS AVENUE LLC,1425 COLLINS AVENUE LLC,1425 COLLINS AVE,MIAMI BEACH,33139,305-534-9334,305-534-9334,HOTL,49,Rooms,25.78621,-80.1305,942275.128903411,528933.737777993
-8937135.4685,2977610.6046,3,0431180012200,508 CABANA HOTEL LLC,508 CABANA HOTEL LLC,508 W 1 AVE,HIALEAH,33010,786-344-2542,,HOTL,52,Rooms,25.82652,-80.28365,891799.937203079,543279.311448991
-8926181.8359,2978124.9224,4,0132180310260,7 SEAS MOTEL,LIN THOMAS T,5940 BISCAYNE BLVD,MIAMI,33137,305-757-1678,305-757-1678,MOTL,50,Rooms,25.83067,-80.18525,924158.587380663,544979.27294407
-8957083.349,2935075.0053,5,,A-1 BUDGET MOTEL,KPN INC,30600 S DIXIE HWY,HOMESTEAD,33030,305-247-7032,,MOTL,20,Rooms,25.48208,-80.46285,833363.086229246,417813.656212822
-8921353.9814,2972232.8582,6,0232342440001,ABAE HOTEL,"R POWER HOLDINGS, INC",1215 WEST AVE,MIAMI BEACH,33139,786-888-1702,786-888-1702,HOTL,45,Rooms,25.78302,-80.14188,938537.498255327,527750.434698403
-8920039.5986,2973908.6427,7,0232260010170,ABBEY HOTEL,ABBEY HOTEL ACQUISITION LLC,300 21 ST,MIAMI BEACH,33139,646-467-1399,646-467-1399,HOTL,9,Rooms,25.79658,-80.13009,942390.43444708,532702.559308574
-8942080.8102,2975614.0859,8,3530270010130,AC HOTEL BY MARRIOTT,AC DORAL LLC,8091 NW 36 ST,DORAL,33166,305-592-3393,305-592-3393,HOTL,118,Rooms,25.81037,-80.32808,877216.556264911,537334.184231654
-8921389.4129,2995082.2006,9,2812340790025,AC HOTEL MIAMI AVENTURA,NORWICH AVENTURA II LLC,20805 BISCAYNE BLVD,AVENTURA,33180,786-590-5100,786-590-5100,HOTL,233,Rooms,25.9677,-80.1422,937994.137793496,594876.556023322
-8919485.3605,2974991.0987,10,0232260011090,AC HOTEL MIAMI BEACH,MARRIOTT HOTEL SERVICES INC,2912 COLLINS AVE,MIAMI BEACH,33140,786-708-7230,786-708-7230,HOTL,150,Rooms,25.80533,-80.1251,944007.49912633,535895.434484489
-8935063.012,2972075.189,11,0131320210020,AIRPORT REGENCY HOTEL,AIRPORT REGENCY MANGEMENT INC,1000 NW 42 AVE,MIAMI,33126,305-332-7274,,HOTL,175,Rooms,25.78175,-80.26503,898014.877200995,527041.813412242
-8935092.4399,2975634.283,12,0531200360090,ALADDIN HOTEL,ALFERCA MIAMI LLC,901 S ROYAL POINCIANA,MIAMI SPGS,33166,305-883-9999,305-883-9999,MOTL,50,Rooms,25.81053,-80.2653,897869.499210913,537503.937172987
-8920155.3519,2973227.924,13,0232340190660,ALBION HOTEL,ALBION ASSOC LTD,1650 JAMES AVE,MIAMI BEACH,33139,305-913-1000,,HOTL,100,Rooms,25.79107,-80.13112,942061.498097077,530699.122698657
-8919566.7986,2975051.5173,14,0232260011160,ALDEN HOTEL,2925 TRUST LLC,2925 NDIAN CREEK DR,MIAMI BEACH,33139,786-301-1166,,HOTL,71,Rooms,25.80582,-80.12583,943765.622641578,536071.43610099
-8919045.9846,2978018.7644,15,0232140190001,ALEXANDER HOTEL MIAMI BEACH LLC,ALEXANDER HOTEL MIAMI BEACH LLC,5225 COLLINS   AVE,MIAMI BEACH,33140,305-469-2878,305-851-2444,HOTL,80,Rooms,25.82982,-80.12115,945246.658393413,544803.077758409
-8934824.8175,2967879.5636,16,0341170081120,ALOFT CORAL GABLES,CORAL GABLES MIRACLE MILE HOTEL LLC,2524 LE JEUNE RD,CORAL GABLES,33134,305-858-0915,305-858-0915,HOTL,171,Rooms,25.74781,-80.26289,898787.997373912,514708.724889487
-8946621.2742,2974741.5344,17,3530291000010,ALOFT DORAL,DORAL HOTEL ENTERPRISE LLC,3265 NW 107 AVE,DORAL,33172,786-272-7200,786-272-7200,HOTL,145,Rooms,25.80331,-80.36886,863810.159193244,534702.982801154
-8927499.3488,2969894.8182,18,0102070501050,ALOFT MARY BRICKELL,MARY BRICKELL VILLAGE HOTEL LLC,1001 SW 2 AVE,MIAMI,33130,786-837-1443,786-837-1443,HOTL,160,Rooms,25.76411,-80.19709,920413.000055578,520761.436537325
-8940601.3332,2975398.971,19,3030260290001,ALOFT MIAMI AIRPORT,7220 NW 36 STREET HOSPITALITY LLC,7220 NW 36 ST,MIAMI,33166,305-901-1005,305-901-1005,HOTL,125,Rooms,25.80863,-80.31479,881592.247644745,536724.436435409
-8921535.5163,2995058.7246,20,,ALOFT MIAMI AVENTURA,NORWICH AVENTURA I LLC,2910 NE 207 ST,AVENTURA,33180,786-590-5150,,HOTL,207,Rooms,25.96752,-80.14352,937563.36043983,594804.816337407
-8941057.4575,2960470.6612,21,3050020000560,ALOFT MIAMI DADELAND,IC-MIAMI DADELAND LLC,7600 N KENDALL DR,MIAMI,33156,305-595-6000,603-559-2167,MOTL,122,Rooms,25.68784,-80.31888,880470.940176077,492815.830027074
-8952940.0349,2939880.6819,22,3069340040381,AMERICAN BEST INN,CHAND TARA,26480 S DIXIE HWY,HOMESTEAD,33032,305-258-3034,305-258-3034,MOTL,25,Rooms,25.52104,-80.42563,845580.358382579,432026.135333739
-8937111.8077,2978062.0693,23,0431180015001,ANCHOR HOTEL,903 ANCHOR HOTEL LLC,903 W 1 AVE,HIALEAH,33010,786-344-2592,,HOTL,21,Rooms,25.83017,-80.28344,891862.624741744,544606.497442909
-8920494.6367,2971445.2297,24,0242030091690,ANGLER'S BOUTIQUE RESORT,ANGLER'S BOUTIQUE RESORT,660 WASHINGTON AVE,MIAMI BEACH,33139,305-534-9600,,HOTL,132,Rooms,25.77665,-80.13416,941093.050558914,525451.321186408
-8958739.9794,2933278.7636,25,1078130320040,ANHINGA MOTEL,V D S INC,250 S KROME,HOMESTEAD,33030,,,MOTL,14,Rooms,25.46751,-80.47773,828474.559588995,412499.881735407
-8920062.8009,2973917.323,26,0232260010190,ANSONIA HOTEL,PLYMOUTH HOTEL LLC,318 21 ST,MIAMI BEACH,33139,305-405-5070,516-606-0900,HOTL,30,Rooms,25.79665,-80.13028,942321.684912663,532727.623890989
-8920120.4309,2972882.0173,27,0232340191070,AQUA HOTEL,1530 COLLINS LLC,1530 COLLINS AVE,MIAMI,33139,305-538-4361,305-538-4361,HOTL,45,Rooms,25.78827,-80.1308,942171.434556995,529682.872434571
-8920191.1078,2974094.1705,28,0232270400001,ARTECITY JABB LLC,ARTECITY JABB LLC,2130 PARK AVE TH 4 E,MIAMI BEACH,33139,305-447-0123,305-447-0123,HOTL,1,Rooms,25.79808,-80.13144,941939.006544162,533245.00113707
-8927487.503,2969381.0788,29,0141380014010,ATTON BRICKELL MIAMI HOTEL,ATTON HOTELS MIAMI LLC,1500 SW 1 AVE,MIAMI,33129,305-773-9827,305-773-9827,HOTL,275,Rooms,25.75995,-80.19698,920457.226016995,519250.975975573
-8920218.8608,2971484.5548,30,0242030040190,AVALON HOTEL,YANKEE DEVELOPMENT CORP,700 OCEAN DR,MIAMI BEACH,33139,305-849-3033,305-538-0133,HOTL,68,Rooms,25.77697,-80.1317,941907.561068997,525572.311101906
-8919481.1751,2986572.6102,31,1222260030040,BAL HARBOUR QUARZO HOTEL,BEACH HAUS LODGING LLC,290 BAL BAY DR,BAL HARBOUR,33154,305-222-7922,786-924-1825,HOTL,29,Rooms,25.89896,-80.12507,943793.249554828,569926.374296486
-8919130.4237,2982011.5415,32,0232020070030,BALTIC HOTEL INC.,BALTIC HOTEL INC.,7643 HARDING AVE,MIAMI BEACH,33141,305-861-8845,,HOTL,12,Rooms,25.8621,-80.12191,944918.746975746,556534.311185658
-8929765.9911,2971253.0937,33,0141020059120,BARLINGTON HOTEL,CM & DR INC,1350 NW 2 ST,MIAMI,33125,305-449-9132,305-649-2677,HOTL,52,Rooms,25.7751,-80.21745,913687.814030912,524714.938144743
-8946613.969,2975465.922,34,3530291060010,BAYMONT INN & SUITES,B & I PROPERTIES LTD,3805 NW 107 AVE,MIAMI,33178,6409896,640-9896,HOTL,92,Rooms,25.80917,-80.3688,863821.538107496,536832.349277325
-8958384.3662,2931735.0811,35,1679190070030,BAYMONT INN & SUITES,KAIVAL JAI,553 NE 1 AVE,FLORIDA CITY,33034,305-790-3477,,HOTL,42,Rooms,25.45499,-80.47453,829546.456395328,407953.66674649
-8920237.9312,2971332.743,36,0242030040060,BEACH PARADISE HOTEL,MERUELO HOMERO & BELINDA,600 OCEAN DR,MIAMI BEACH,33139,305-865-1250,,HOTL,50,Rooms,25.77574,-80.13186,941854.124824163,525125.578727655
-8919166.1266,2983162.8659,37,0232020050620,BEACH PLACE HOTEL,HARDING INVESTMENTS LLC,8601 HARDING AVE,MIAMI BEACH,33141,305-864-8885,305-864-8885,HOTL,53,Rooms,25.8714,-80.12223,944790.66389858,559916.223056987
-8920086.0047,2972531.7003,38,0232340080660,BEACH PLAZA HOTEL,JAAN HOSPITALITY LLC,1401 COLLINS AVENUE,MIAMI BEACH,33139,305-531-6421,305-531-6421,HOTL,77,Rooms,25.78544,-80.13049,942279.998316247,528653.622524574
-8920213.8713,2971510.3704,39,0242030040180,BEACON HOTEL,SOUTH BEACH PROPERTIES,720 OCEAN DR,MIAMI BEACH,33139,305-674-8200,305-674-8200,HOTL,79,Rooms,25.77718,-80.13164,941921.811040495,525648.311277993
-8920149.5369,2973305.3339,40,0232340190700,BEDS & DRINKS HOSTEL,BEDS & DRINKS HOLDINGS LLC,1676 JAMES AVE,MIAMI BEACH,33139,305-967-4510,786-230-1576,HOTL,26,Rooms,25.7917,-80.13107,942077.185073581,530926.81056349
-8958715.6525,2935033.48,41,,BEL INN,COMIJO INC,1202 N KROME AVE,HOMESTEAD,33030,,,MOTL,12,Rooms,25.48174,-80.47751,828526.373133663,417672.026902907
-8920329.8489,2970590.7597,42,0242032720001,BENTLEY BEACH HOTEL,HEAFY BENTLEY MANAGEMENT LLC,101 OCEAN DRIVE,MIAMI BEACH,33139,,,HOTL,109,Rooms,25.76974,-80.13268,941596.74804233,522942.125089325
-8920269.4732,2971239.3531,43,0242032230001,BENTLEY SOUTH BEACH,JKR BENTLEY MANAGEMENT LLC,510 OCEAN DR,MIAMI BEACH,33139,305-538-1700,786-427-1149,HOTL,51,Rooms,25.77499,-80.13215,941762.685702577,524850.374553658
-8920101.6924,2973053.4754,44,0232340190790,BERKELEY SHORE HOTEL,BERKELEY SHORE LLC,1610 COLLINS AVE,MIAMI BEACH,33139,305-864-3777,786-216-7780,HOTL,96,Rooms,25.78966,-80.13063,942223.497773077,530187.311058238
-8954254.09429999,2934373.5195,45,1079160010191,BEST STUDIO INN,MIAMI HOTELS LLC,2750 NE 8 ST,HOMESTEAD,33033,305-245-5000,305-245-5000,MOTL,121,Rooms,25.47639,-80.43744,841756.09339333,415780.780357324
-8919192.11759999,2975973.8729,46,0232260011980,BEST WESTERN,SOKOLOV LTD,4101 COLLINS AVE,MIAMI BEACH,33140,6733337,,HOTL,204,Rooms,25.81328,-80.12246,944854.937392078,538789.99693682
-8958593.34699999,2930228.5196,47,1679300010281,BEST WESTERN GATEWAY TO THE KEYS,HOTEL TWO,411 S KROME AVE,FLORIDA CITY,33034,305-246-5100,305-246-5100,HOTL,114,Rooms,25.44277,-80.47641,828944.462192494,403509.844925493
-8949497.02269999,2960506.756,48,3049360300010,BEST WESTERN HOTEL & SUITES,WYNNE BUILDING CORPORATION,8560 SW 124 AVE,MIAMI,33183,305-271-4848,,HOTL,120,Rooms,25.68814,-80.3947,855502.937290661,492800.529860824
-8952357.59109999,2954530.0809,49,3059220010230,BEST WESTERN KENDALL AIRPORT HOTEL AND SUITES,ERG HOTELS INC,13700 SW 139 CT,MIAMI,33186,305-238-1766,305-238-1766,HOTL,97,Rooms,25.63974,-80.42039,847117.39500666,475174.176005989
-8922035.63409999,2980392.8125,50,2332090000131,BEST WESTERN ON THE BAY,NORTH BAY INN LLC,1819 79 ST CSWY,NORTH BAY VILLAGE,33141,305-856-7100,786-485-2001,MOTL,113,Rooms,25.84901,-80.14801,936367.124971412,551721.499288991
-8937345.8988,2975414.2053,51,0531190104760,BEST WESTERN PLUS MIAMI AIRPORT NORTH HOTEL & SUITES,FAIRWAY DRIVE INVESTMENT LLC,131 FAIRWAY DR,MIAMI SPRINGS,33166,305-884-5120,786-515-1880,HOTL,92,Rooms,25.80875,-80.28554,891213.178862162,536820.380797327
-8946500.381,2975473.8024,52,3530291060021,BEST WESTERN PLUS MIAMI DORAL,IRATEL PROPERTIES LLC,3875 NW 107 AVE,MIAMI,33178,,,MOTL,103,Rooms,25.80924,-80.36778,864157.122410078,536857.123834074
-8934828.2422,2970806.6129,53,0141050350011,BEST WESTERN PREMIER,FLAGLER 4100 PROPERTY LLC,4100 W FLAGLER ST,MIAMI,33134,305-406-3580,305-774-6100,HOTL,144,Rooms,25.77149,-80.26293,898729.746834245,523315.874013737
-8923849.3719,2985314.4067,54,0622280010593,BEST WESTERN WINDOR INN,SWAMIJI INCORPORATED,12210 BISCAYNE BLVD,NORTH MIAMI,33181,305-891-7350,,MOTL,98,Rooms,25.88879,-80.1643,930916.44952108,566146.483234242
-8920019.7759,2972672.1555,55,0232340080581,BETSY SOUTH BEACH,BETSY ROSS OWNER LLC,1440 OCEAN DRIVE,MIAMI BEACH,33139,305-531-3934,305-531-3934,HOTL,132,Rooms,25.78658,-80.12991,942473.047142744,529067.852667242
-8921355.8393,2972301.8104,56,0232330180110,BIKINI HOSTEL,BIKINI HOSTEL INC,1247 WEST AVENUE,MIAMI BEACH,33139,,305-253-9000,HOTL,18,Rooms,25.78358,-80.14191,938530.685604911,527953.121957071
-8936571.4357,2967008.2802,57,0341180062281,BILTMORE HOTEL,BILTMORE HOTEL LIMITED PARTNERSHIP,1200 ANASTASIA AVE,CORAL GABLES,33134,305-445-1926,305-445-1926,HOTL,270,Rooms,25.74076,-80.27859,893637.367911413,512117.773050405
-8926243.5982,2973198.6304,58,0132310360021,BISCAYNE BAY MARRIOTT HOTEL,MARRIOTT INTL INC&CCMH POTOMAC,1633 N BAYSHORE DR,MIAMI,33132,305-374-3900,305-374-3900,HOTL,604,Rooms,25.79084,-80.18581,924065.681726579,530497.99153924
-8926126.78479999,2979013.3008,59,0132180230430,BISCAYNE INN & APTS,BISCAYNE INN & APTS,6730 BISCAYNE BLVD,MIAMI,33138,,954-438-6714,MOTL,53,Rooms,25.83786,-80.18476,924305.070355412,547591.036093242
-8920413.50559999,2970758.0109,60,0242030030370,BLANC KARA,MANAGER 205 LLC,205 COLLINS AVE,MIAMI BEACH,33139,,,HOTL,25,Rooms,25.77109,-80.13344,941346.186863661,523432.278308488
-8920249.3951,2971821.3029,61,,BLUE MOON HOTEL,HHLP BLUE MOON LESSEE LLC,944 & 926 COLLINS AVE,MIAMI BEACH,33139,,215-238-1046,HOTL,75,Rooms,25.7797,-80.13197,941810.769267827,526561.815356493
-8919924.329,2973885.6947,62,,BOULAN HOTEL,THINK PROPERTIES LLC,220 21 ST,MIAMI BEACH,33139,,,HOTL,30,Rooms,25.79639,-80.12904,942731.594197828,532637.350777574
-8920203.51949999,2971563.9971,63,0242030040150,BOULEVARD HOTEL,"EDWARDS PROPERTY & HOTEL MANAGEMENT, INC.",740 OCEAN DR,MIAMI BEACH,33139,305-532-0276,305-532-0376,HOTL,39,Rooms,25.77761,-80.13155,941951.374301579,525806.186290324
-8920057.4301,2973605.0595,64,0232340190120,BOUTIQUE 18 LLC,SOUTH BEACH 18 LLC,235 18 ST,MIAMI BEACH,33139,305-627-9370,786-802-1905,HOTL,24,Rooms,25.79412,-80.13024,942343.624173246,531809.748102076
-8920127.5173,2971819.7095,65,,BREAKWATER HOTEL,940 OCEAN DRIVE LLC,940 - 960 OCEAN DR,MIAMI BEACH,33139,305-532-2362,305-672-2579,HOTL,100,Rooms,25.77968,-80.13087,942171.096959244,526559.506305993
-8958699.2324,2934486.8747,66,,BUDGET HOST INN,NEW GAYATRI INC,815 N KROME AVE,FLORIDA CITY,33034,305-248-2741,305-248-2741,MOTL,45,Rooms,25.47731,-80.47736,828581.354650997,416061.214507736
-8932474.1315,2981180.304,67,3031030000140,BUDGET INN,DI PAL I INC,8929 NW 27 AVE,MIAMI,33147,305-693-3355,,MOTL,23,Rooms,25.85538,-80.24179,905513.634185079,553846.447794989
-8935416.6379,2969936.6881,68,0141050450160,BURKES MOTEL,B M C MOTEL CORP,4445 SW 8 ST,MIAMI,33134,305-442-1212,305-448-3735,MOTL,36,Rooms,25.76445,-80.26821,897004.443854414,520748.27875524
-8920080.7127,2973414.7262,69,0232340190430,CADET HOTEL,SOUTHERN PROP INVESTMENT GP,1701 JAMES AVE,MIAMI BEACH,331397,305-672-6688,305-672-6688,HOTL,43,Rooms,25.79258,-80.13045,942278.499959663,531249.749550156
-8919231.9421,2975832.7466,70,0232260011850,"CADILLAC HOTEL & BEACH CLUB, AUTOGRAPH COLLECTION",HHLP MIAMI BEACH LESSEE LLC,3925 COLLINS AVE,MIAMI BEACH,33140,305-538-3373,215-238-1046,HOTL,262,Rooms,25.81214,-80.12282,944740.006191496,538374.393765405
-8939782.77849999,2971478.5731,71,3040020490010,CAMBRIA SUITES MIAMI AIRPORT- BLUE LAGOON,SUNFLOWER HOSPITALITY LLC,6750 NW 7 ST,MIAMI,33126,305-261-9899,305-261-9899,HOTL,122,Rooms,25.77692,-80.30743,884072.035336077,525212.116284236
-8943497.36669999,2974387.2349,72,3530280160050,CANDLEWOOD HOTEL,CANDLEWOOD LEASING NO 2 INC,8855 NW 27 ST,MIAMI,33172,5919099,305-591-9099,HOTL,128,Rooms,25.80045,-80.3408,873048.179759163,533706.770226657
-8938493.58689999,2975307.9645,73,2630250320001,CANDLEWOOD SUITES HOTEL,WATERSTONE CAPITAL AIRPORT LLC,5911 NW 36 ST,VIRGINIA GARDENS,33166,305-874-7000,305-448-2898,HOTL,130,Rooms,25.8079,-80.29585,887822.949422162,536489.81715399
-8952366.44929999,2954622.8187,74,3059220010210,CANDLEWOOD SUITES MIAMI EXEC AIRPORT - KENDALL,ERG HOLDINGS INC,13600 SW 139 CT,MIAMI,33186,305-793-4533,305-238-1966,HOTL,102,Rooms,25.64049,-80.42047,847089.98430033,475447.027822487
-8918925.3423,2980873.1564,75,0232110070460,CARILLON HOTEL AND SPA,CARILLON HOTEL LLC,6801 COLLINS AVENUE,MIAMI BEACH,33141,847-235-8100,847-235-8100,HOTL,150,Rooms,25.85289,-80.12007,945546.998015828,553193.505859405
-8926163.65009999,2978156.1927,76,0132180310250,CARL'S EL PADRE MOTEL,PATEL CHANDRAKANT J,5950 BISCAYNE BLVD,MIAMI,33137,305-754-2092,305-754-2092,MOTL,16,Rooms,25.83093,-80.18509,924211.755581412,545071.505043074
-8920292.58979999,2972461.1105,77,0232340110020,CASA BOUTIQUE HOTEL,WALDORF HOTEL LLC,1334 WASHINGTON AVE,MIAMI BEACH,33139,786-216-7780,305-528-2044,HOTL,32,Rooms,25.78487,-80.13235,941670.685558494,528442.060283653
-8920179.33359999,2971696.064,78,0242031700001,CASA GRANDE HOTEL,CASA GRANDE COND ASSOC,834 OCEAN DR,MIAMI BEACH,33139,305-534-2135,,HOTL,38,Rooms,25.77868,-80.13134,942020.313796245,526194.958806738
-8938695.59389999,2969766.3502,79,1540120210060,CASA STUDIO,ALAMEDA HOLDING LLC,6290 SW 8 ST,WEST MIAMI,33144,305-267-5100,305-663-1002,MOTL,40,Rooms,25.76307,-80.29767,887312.807069745,520194.66765774
-8920375.42719999,2972717.9966,80,,CASA VICTORIA ORCHID HOTEL,1444 DREXEL LLC,507 ESPANOLA WAY,MIAMI BEACH,33139,305-672-4449,305-532-2357,HOTL,22,Rooms,25.78695,-80.13309,941420.839929581,529195.69099424
-8920027.17099999,2973485.1587,81,0232340190350,CATALINA HOTEL,CATALINA HOTEL LLC,1732 COLLINS AVENUE,MIAMI BEACH,33139,305-674-1160,305-674-1160,HOTL,191,Rooms,25.79315,-80.12996,942435.39498708,531457.854120821
-8920049.79509999,2972401.6783,82,0232340080500,CAVALIER HOTEL,VENTURA CAPITAL ONE LLC,1320 OCEAN DR,MIAMI BEACH,33139,305-673-1199,786-606-7623,HOTL,44,Rooms,25.78439,-80.13018,942389.561089244,528272.06226407
-8920379.34799999,2970679.7128,83,0242030030180,CENTURY HOTEL,CENTURY MIAMI BEACH LLC,140 OCEAN DR,MIAMI BEACH,33139,,,HOTL,24,Rooms,25.77046,-80.13313,941448.68567441,523202.718072072
-8919154.52039999,2976628.6746,84,0232230020010,"CHATEAU, VERSAILLES, FONTAINEBLEAU FLORIDA TOWER II & III",FONTAINEBLEAU FLORIDA HOTEL LLC,4441 COLLINS AVE,MIAMI BEACH,33140,305-538-2000,305-674-4752,HOTL,1594,Rooms,25.81858,-80.12213,944953.208520997,540715.373991571
-8934391.28419999,2969535.8218,85,,CHATEAUBLEAU INN,CHATEAUBLEAU INN INC,1111 PONCE DE LEON BLVD,CORAL GABLES,33134,305-448-2634,305-448-2634,HOTL,82,Rooms,25.76121,-80.259,900042.558841161,519586.468742907
-8934316.08909999,2969392.8205,86,0341080092310,CHATEAUBLEAU INN,CHATEAUBLEAU INN INC,1211 E PONCE DE LEON BLVD,CORAL GABLES,33134,305-448-2634,305-448-2634,HOTL,36,Rooms,25.76005,-80.25832,900267.247696247,519167.216300577
-8920396.55079999,2971895.529,87,0242030090140,CHELSEA HOTEL,HOTEL CHELSEA SOUTH BEACH LLC,944 WASHINGTON AVE,MIAMI BEACH,33139,305-534-4069,,HOTL,43,Rooms,25.7803,-80.13328,941374.309838913,526777.185988739
-8937877.29299999,2978129.7523,88,0430130150050,CHESAPEAKE HOTEL,ATLANTIC HOTEL MANAGEMENT LLC,935  W OKEECHOBEE RD,HIALEAH,33010,305-887-7457,305-887-7457,MOTL,86,Rooms,25.83071,-80.29032,889599.626314994,544793.139786154
-8920223.51679999,2971740.0964,89,0242030040410,CHESTERFIELD / LEON / LILY HOTELS,CHESTERFIELD HOTEL & SUITES LLC,855 COLLINS AVE,MIAMI BEACH,33139,305-531-5831,305-398-7000,HOTL,93,Rooms,25.77904,-80.13173,941888.844570994,526323.559927493
-8919303.61569999,2975816.5288,90,0232260011860,CIRCA 39,THIRTYNINE COLLINS LLC,3900 COLLINS AVENUE,MIAMI BEACH,33140,305-538-4900,305-905-5418,HOTL,86,Rooms,25.81201,-80.12346,944528.498740494,538325.311842576
-8920033.76209999,2973416.3482,91,0232340190320,CLAREMONT HOTEL/ HAMPTON INN,CLAREMONT PARTNERS LLC,1700 COLLINS AVE,MIAMI BEACH,33139,786-620-2900,704-752-7901,HOTL,69,Rooms,25.7926,-80.13002,942417.249025997,531255.434578158
-8919351.08409999,2975479.1916,92,0232260011500,CLARIDGE HOTEL,3500 HOTEL LLC,3500 COLLINS AVE,MIAMI BEACH,33140,305-604-8485,305-604-8485,HOTL,51,Rooms,25.80928,-80.12389,944394.811999995,537332.811202906
-8936867.61539999,2975331.8811,93,0531190104580,CLARION INN 7 SUITES,DORAL BOULEVARD HOTEL LLC,5301 NW 36 ST,MIAMI SPRINGS,33166,305-871-6000,305-576-7800,HOTL,274,Rooms,25.80809,-80.28125,892628.030363161,536586.09648899
-8920299.35359999,2972706.7936,94,0232340150020,CLAY HOTEL,CLAY HOTEL PARTNERSHIP LTD,406 ESPANOLA WAY,MIAMI BEACH,33139,305-534-2988,305-534-2988,HOTL,93,Rooms,25.78686,-80.13241,941645.932983328,529164.235348493
-8920127.8648,2971949.0185,95,0232340080170,CLEVELANDER HOTEL,CLEVELANDER OCEAN LP,1020 OCEAN DR,MIAMI BEACH,33139,,,HOTL,60,Rooms,25.78073,-80.13087,942167.560877077,526939.685007572
-8920096.18499999,2972459.213,96,0232340080560,CLIFTON HOTEL,1343 COLLINS AVE LLC,1343 COLLINS AVE,MIAMI BEACH,33139,310-477-3593,424-291-5865,HOTL,35,Rooms,25.78486,-80.13058,942251.311365746,528440.310287155
-8920355.51749999,2971698.0684,97,0242030040520,CLINTON HOTEL,SM THINK CLINTON LLC,825 WASHINGTON AVE,MIAMI BEACH,33139,305-934-4040,305-934-4040,HOTL,80,Rooms,25.7787,-80.13291,941499.433932494,526197.420744076
-8919041.76089999,2980459.6593,98,0232110071730,COLLINS HOTEL,HOTEL COLLINS LLC,6600 COLLINS AVE,MIAMI BEACH,33141,786-235-7409,786-235-7409,MOTL,101,Rooms,25.84955,-80.12111,945211.178477496,551976.182506658
-8920206.73699999,2971547.2678,99,0242030040160,COLONY HOTEL,COLONY HOTEL LLC,736 OCEAN DRIVE,MIAMI BEACH,33139,,305-528-8000,HOTL,50,Rooms,25.77748,-80.13158,941942.186983995,525756.93638882
-8948160.08039999,2966071.7762,100,3040180700030,COMFORT SUITES,LITOWITZ GROUP LTD,3901 SW 117 AVE,MIAMI,33175,2203901,305-220-3901,HOTL,132,Rooms,25.73318,-80.38269,859381.586357497,509189.560730986
-8936161.08849999,2975437.5634,101,0531190134070,COMFORT SUITES MIAMI INTERNATIONAL AIRPORT,PFEFFER AND MARIN HOLDINGS LLC,657 MINOLA DR,MIAMI SPRINGS,33166,305-888-3661,305-888-3661,HOTL,102,Rooms,25.80894,-80.2749,894714.417922661,536908.191317238
-8919611.2813,2974388.386,102,0232260010641,COMO METROPOLITAN MIAMI BEACH,COMO TRAYMORE LLC,2445 COLLINS AVE,MIAMI BEACH,33140,786-502-6401,305-695-3508,HOTL,74,Rooms,25.80046,-80.12624,943647.091710661,534121.238885909
-8919222.4224,2975896.319,103,0232260011920,CONFIDANTE,HT - MIAMI BEACH LLC,4041 COLLINS AVE,MIAMI BEACH,33140,,,HOTL,380,Rooms,25.81265,-80.12274,944766.894917246,538561.442603908
-8926946.7571,2969428.8864,104,,CONRAD MIAMI,AG-M MIAMI HOTEL OWNER LLC,1395 BRICKELL AVE,MIAMI,33131,,,HOTL,203,Rooms,25.76034,-80.19212,922055.172296163,519401.327380903
-8959378.6882,2934058.1279,105,,COPPER DOOR B&B,COPPER BEAT LLC,439 NW 4 AVE,MIAMI,33128,305-454-9065,845-764-3895,HOTL,22,Rooms,25.47383,-80.48347,826572.667723496,414789.678993076
-8923422.8008,2960873.048,106,,CORAL REEF APARTMENTS,CORAL REEF OF KEY BISCAYNE DEVELOPERS INC,303-305 GALEN DR,KEY BISCAYNE,33149,786-401-7854,305-343-6804,HOTL,51,Rooms,25.6911,-80.16047,932634.422463078,494299.898253158
-8958734.8416,2932167.0025,107,1678240000341,CORAL ROC MOTEL,CORAL ROC LLC,1100 N KROME AVENUE,FLORIDA CITY,33034,305-246-2888,305-246-2888,MOTL,17,Rooms,25.4585,-80.47769,828502.631055161,409222.818079576
-8919108.0543,2981341.2753,108,0232110020540,COSTA NORTE BOUTIQUE HOTEL,MADMANORT INC,7130 HARDING AVE,MIAMI BEACH,33141,305-505-8206,,HOTL,27,Rooms,25.85668,-80.12171,944997.99812958,554565.374834821
-8948221.4869,2960738.387,109,3049360070060,COUNTRY INN & SUITES,KENDALL INTERNATIONAL INVESTMENT GROUP LLC,11750 MILLS DR,MIAMI,33183,,,MOTL,97,Rooms,25.69001,-80.38324,859273.264067579,493499.489748992
-8958638.7527,2931902.0945,110,1679190000081,COUNTRY LODGE,KOMAL INC,651 N KROME AVE,FLORIDA CITY,33034,305-245-2376,305-245-2376,MOTL,38,Rooms,25.45635,-80.47682,828790.502854746,408443.033877991
-8926785.0633,2970903.373,111,0141370200010,COURTYARD BY MARRIOTT,MIAMI CONVENTION HOTEL CORP,200 SE 2 AVE,MIAMI,33131,305-374-3000,305-374-3000,MOTL,259,Rooms,25.77227,-80.19067,922506.622180663,523739.904005572
-8920252.482,2972887.4354,112,0232340060110,COURTYARD BY MARRIOTT,COURTYARD MANAGEMENT CORP,1530 WASHINGTON AVE,MIAMI BEACH,33139,6048887,305-604-8887,HOTL,90,Rooms,25.78832,-80.13199,941780.986518994,529696.226738572
-8941603.5273,2975583.7725,113,3530270260010,COURTYARD BY MARRIOTT HOTEL,COURTYARD MANAGEMENT CORPORATION,3929 NW 79 AVE,MIAMI,33166,305-477-8118,,HOTL,145,Rooms,25.81013,-80.32379,878627.560004577,537252.309067324
-8934778.3954,2968636.7184,114,0341080061290,COURTYARD BY MARRIOTT MIAMI CORAL GABLES,JHM FLORIDA HOTEL MANAGEMENT INC,2051 S LEJEUNE RD,MIAMI,33134,305-443-2301,,MOTL,168,Rooms,25.75393,-80.26248,898912.812084913,516936.123977989
-8947627.2232,2972464.4376,115,2530310270010,COURTYARD BY MARRIOTT MIAMI DOLPHIN MALL,APPLE SEVEN HOSPITALITY MANAGEMENT,11275 NW 12 ST,MIAMI,33172,305-994-9343,305-994-9343,HOTL,118,Rooms,25.7849,-80.3779,860868.680168077,527994.869905077
-8953896.715,2934658.258,116,1079090390010,COURTYARD BY MARRIOTT SOUTH HOMESTEAD,HOMESTEAD VPE HOTEL LLC,2905 NE 9 ST,HOMESTEAD,33033,,954-392-8788,HOTL,100,Rooms,25.4787,-80.43422,842811.645416077,416624.489955992
-8921602.8976,2993291.9312,117,2822030550011,COURTYARD MARRIOTT AT AVENTURA,TURNBERRY HTL GRP OF MIAMI LTD,2825 NE 191 ST,AVENTURA,33180,9370805,305-937-0805,HOTL,166,Rooms,25.95325,-80.14412,937398.401780244,589616.708931491
-8934811.2252,2972353.8408,118,0131320270010,COURTYARD MIAMI AIRPORT,MARRIOTT HOTEL SERVICES INC,1201 NW 42 AVE,MIAMI,33126,305-642-8200,305-642-8200,HOTL,300,Rooms,25.784,-80.26277,898754.599146746,527865.211371742
-8940566.5009,2960241.0937,119,3050020780010,COURTYARD MIAMI DADELAND,DC HOTELS LLC,9075 S DADELAND BLVD,KENDALL,33156,,305-671-5111,HOTL,128,Rooms,25.68598,-80.31447,881926.891332414,492147.877294742
-8948265.5387,2982865.7494,120,3030060070010,COURTYARD MIAMI WEST FLORIDA TURNPIKE,GFII DVI CARDEL FLAGLER COURTYARD LLC,11580 NW 105 ST,MIAMI,33178,,561-207-2762,HOTL,127,Rooms,25.869,-80.38363,858838.567430411,558554.269416071
-8941820.5127,2988491.3423,121,,COURTYARDS BY MARRIOTT,COURTYARD MANAGEMENT CORP,15700 NW 77 CT,MIAMI LAKES,33016,305-556-6665,,MOTL,150,Rooms,25.91446,-80.32574,877791.606623996,575172.01111491
-8920021.597,2972603.3817,122,0232340080610,CRESCENT RESORT ON SOUTH BEACH,ISLAND ONE RESORTS MANAGEMENT CORP,1420 OCEAN DR,MIAMI BEACH,33139,305-531-5197,702-823-7303,HOTL,27,Rooms,25.78602,-80.12991,942468.999578662,528865.623084821
-8920118.2513,2973249.6372,123,,CREST HOTEL SUITES,CREST HOTEL GROUP LLC,1666-1670 JAMES AVE,MIAMI BEACH,33139,305-531-0321,786-216-7780,HOTL,69,Rooms,25.79125,-80.13078,942170.743613496,530763.680640407
-8938913.0974,2978981.3353,124,0430130190070,CROSSWAYS MOTEL,ATLANTIC HOTEL MANAGEMENT LLC,1775  W OKEECHOBEE RD,HIALEAH,33010,305-888-6010,305-888-6010,MOTL,93,Rooms,25.8376,-80.29962,886525.623932827,547279.311322987
-8935068.0356,2971996.9438,125,0131320390010,CROWNE PLAZA HOTEL MIAMI INTERNATIONAL AIRPORT,HPT TRS IHG-2 INC,950 NW LEJEUNE RD,MIAMI,33126,305-446-9000,770-604-2000,HOTL,304,Rooms,25.78112,-80.26508,898001.310298994,526811.686247826
-8918946.9258,2981238.7636,126,0232110560001,CRYSTAL BEACH SUITES HOTEL,CRYSTAL BEACH INC,6985 COLLINS AVE,MIAMI BEACH,33141,305-865-9555,305-865-9555,HOTL,84,Rooms,25.85585,-80.12026,945476.038183995,554267.35213691
-8919176.3278,2976090.6951,127,0232260012060,DAYS INN,ATLANTIC VIEW PARTNERS LTD,4299 COLLINS AVE,MIAMI BEACH,33140,305-673-1513,,HOTL,147,Rooms,25.81423,-80.12232,944899.311647162,539133.685881987
-8958369.4752,2930974.1734,128,1679190010401,DAYS INN,KUNVARJI HOTELS LLC,124 E PALM DR,FLORIDA CITY,33034,305-247-8833,305-247-8833,MOTL,123,Rooms,25.44882,-80.4744,829599.437916663,405710.719132654
-8918941.24429999,2981820.5235,129,0232020030010,DAYS INN & SUITES,7450 OCEAN TERRACE LLC,7450 OCEAN TER,MIAMI BEACH,33141,305-446-0123,305-446-0123,HOTL,96,Rooms,25.86055,-80.12021,945481.374459412,555976.810332157
-8936107.0104,2975355.1759,130,0531190134010,DAYS INN MIAMI AIRPORT NORTH,TRAVELERS PARTNERS LLC,4767 NW 36 ST,MIAMI SPRINGS,33166,305-888-3661,,MOTL,147,Rooms,25.80828,-80.27441,894875.57672108,536666.904726326
-8940454.5725,2971967.4929,131,3030520020240,DAYS INN MIAMI INTERNATIONAL AIRPORT HOTEL-NEW,ALMAR HOTEL CORP,7250 NW 11 ST,MIAMI,33126,305-261-4230,305-261-4230,MOTL,103,Rooms,25.78088,-80.31347,882078.58558283,526639.187577076
-8918877.2132,2980649.0209,132,0232110070420,DEAUVILLE BEACH RESORT,MIAMI BEACH HOSPITALITY LLC,6701 COLLINS AVE,MIAMI BEACH,33141,305-865-8511,305-323-4223,HOTL,539,Rooms,25.85108,-80.11963,945693.603693746,552535.86183349
-8954876.1955,2937510.9312,133,3079040000340,DELUXE INN MOTEL,PRAGATI MOTEL INC.,28475 S DIXIE HWY,MIAMI,33033,305-248-5622,,MOTL,20,Rooms,25.50183,-80.44302,839873.775307577,425019.197247908
-8918945.8941,2978548.1592,134,0232140210001,DESIGN SUITES MIAMI BEACH,DESIGN SUITES MIAMI INC,5445 COLLINS AVE  STE CU14,MIAMI BEACH,33140,,,HOTL,140,Rooms,25.8341,-80.12025,945532.013137661,546360.880417071
-8919290.2332,2980992.5944,135,0232110010750,DEVON APARTMENTS,DEVON APARTMENTS INC,6881 INDIAN CREEK DR,MIAMI BEACH,33141,786-554-9474,786-554-9474,HOTL,28,Rooms,25.85386,-80.12334,944466.622879997,553537.249594487
-8936695.439,2978905.248,136,0431180033870,DIXIE ROSS HOTEL,LAND C DIXIE LLC,100 E 17 ST,HIALEAH,33010,786-344-2542,,HOTL,32,Rooms,25.83698,-80.27971,893079.374276746,547091.122066826
-8940233.6268,2988279.808,137,3220230240010,DON SHULA'S HOTEL,GRAHAM COMPANIES (THE),6842 MAIN ST,MIAMI LAKES,33014,305-821-1150,,HOTL,208,Rooms,25.91275,-80.31148,882480.595933661,574575.133371659
-8945824.6649,2973149.8028,138,3530320340020,DOUBLETREE BY HILTON MIAMI DORAL,HOSPITALITY DORAL LLC,10250 NW 19 ST,DORAL,33172,305-639-9555,561-207-2778,HOTL,150,Rooms,25.79044,-80.36171,866187.244990245,530035.236887321
-8926284.3048,2973290.5793,139,0132310480001,DOUBLETREE GRAND HOTEL (THE),P H HOTEL INC,1717 N BAYSHORE DR,MIAMI,33132,305-372-0313,305-372-0313,HOTL,232,Rooms,25.79158,-80.18617,923943.686235663,530767.562522404
-8940156.6351,2971628.5303,140,3030520000050,DOUBLETREE MIAMI MART AIRPORT HOTEL,AFP 103 CORPORATION,711 NW 72 AVE,MIAMI,33126,305-261-2900,516-466-6560,HOTL,334,Rooms,25.77814,-80.31079,882964.532957911,525647.21252691
-8920181.95939999,2972093.6482,141,,DREAM SOUTH BEACH,SB HOSPITALITY LLC,1111-1119 COLLINS AVENUE,MIAMI BEACH,33139,305-673-4747,305-673-4747,HOTL,108,Rooms,25.7819,-80.13136,942004.84302666,527363.856731407
-8928397.23059999,2971137.8474,142,0102000901200,DYNAMIC HOTEL,DYNAMIC PROPERTY GROUP LLC,637 W FLAGLER ST,MIAMI,33130,,,HOTL,58,Rooms,25.77417,-80.20515,917736.309214745,524400.309508905
-8926940.27619999,2970196.0558,143,0102100601120,EAST MIAMI,BCC HOTEL LLC,788 BRICKELL PLAZA,MIAMI,33131,305-371-3877,305-371-3877,HOTL,352,Rooms,25.76655,-80.19207,922060.506603077,521657.315979153
-8935181.18099999,2975421.2709,144,0531200360150,EB HOTEL MIAMI,EB HOTEL MIAMI LLC,4299 NW 36 ST,MIAMI SPRINGS,33166,305-888-4662,305-888-4662,HOTL,133,Rooms,25.80881,-80.2661,897610.726762578,536876.356079072
-8919133.8938,2976751.8266,145,0232230020040,EDEN ROC,EDEN ROC LLLP,4525 COLLINS AVE,MIAMI BEACH,33140,,,HOTL,631,Rooms,25.81957,-80.12194,945011.749086328,541077.747610658
-8938756.2808,2978864.5349,146,0430130070050,EL PARAISO MOTEL,GLOBAL RESORTS GROUP CORP,1615 W OKEECHOBEE RD,HIALEAH,33010,305-888-8255,305-888-8255,MOTL,48,Rooms,25.83665,-80.29821,886990.802464411,546938.544616073
-8920298.3283,2972737.2969,147,0232340150010,EL PASEO,ESPANOLA WAY ASSOCIATES LTD,405 ESPANOLA WAY,MIAMI BEACH,33139,877-784-2164,877-784-2164,HOTL,71,Rooms,25.7871,-80.1324,941648.37293908,529253.934316076
-8946637.6242,2974812.3552,148,3530291000010,ELEMENT MIAMI DORAL,MIAMI HOTEL ENTERPRISE LLC,3285 NW 107 AVE,MIAMI,33172,786-272-7250,786-272-7250,HOTL,139,Rooms,25.80389,-80.36901,863760.838425744,534910.926282905
-8933798.5757,2974258.5067,149,3031280360010,ELEMENT MIAMI INTERNATIONAL AIRPORT,PHVIF MIAMI LLC,3525 NW 25 ST,MIAMI,33142,305-636-1600,404-497-4111,HOTL,209,Rooms,25.79941,-80.25368,901716.302868996,533481.399286322
-8934680.4929,2975161.3257,150,0531290000244,EMBASSY SUITES HOTEL MIAMI AIRPORT,DJONT/JPM HOSPITALITY LEASING (SPE) LLC,3974 NW SOUTH RIVER DR,MIAMI,33142,305-634-5000,,HOTL,318,Rooms,25.80671,-80.2616,899094.762508411,536120.550504074
-8919184.7512,2981936.965,151,0232020070730,EOLO LLC,EOLO LLC,7610 HARDING AV,MIAMI BEACH,33141,786-536-2106,786-536-2106,HOTL,11,Rooms,25.86149,-80.1224,944759.718422413,556314.12199349
-8926604.9203,2970687.0804,152,0101140301008,EPIC HOTEL,EPIC HOTEL LLC,270 BISCAYNE BLVD WAY,MIAMI,33131,305-727-5226,305-967-7351,HOTL,411,Rooms,25.77052,-80.18905,923043.105359662,523107.208748654
-8934666.0312,2970894.3416,153,0141050111350,ERNESTO MOTEL,3F DEVELOPMENT LLC,4001 W FLAGLER ST,MIAMI,33134,305-541-6508,305-634-6865,MOTL,26,Rooms,25.7722,-80.26147,899207.854473829,523576.505710326
-8920170.8915,2971951.2668,154,0232340080200,ESSEX HOUSE HOTEL,ESSEX HOUSE COLLINS LP,1001 COLLINS AVE,MIAMI BEACH,33139,,,HOTL,80,Rooms,25.78075,-80.13126,942040.322614495,526945.456321493
-8941206.7076,2972189.4803,155,,ESTANCIA HOTEL,LE JEUNE AIRPORT PARK SUITE INC,7685 NW 12 ST,MIAMI,33126,786-443-1448,305-887-8756,HOTL,95,Rooms,25.78267,-80.32023,879851.829865746,527280.302764654
-8918912.9868,2980383.9698,156,0232110070390,EUROAMERICAN GROUP INC,KEY MONTE CARLO LLC,6551 COLLINS AVE STE 100,MIAMI BEACH,33141,,,HOTL,136,Rooms,25.84894,-80.11997,945593.128829081,551756.319101237
-8926867.2484,2971074.8246,157,0101120101160,EUROSTARS LANGFORD,"MIAMI SOUTHERN HOTELS, LLC",121 SE 1 ST,MIAMI,33131,305-420-2200,,HOTL,126,Rooms,25.77366,-80.19142,922260.55935258,524242.528000325
-8933628.1616,2974245.5753,158,3031280091300,EVEN MIAMI AIRPORT HOTEL,EDG HOSPITALITY MIAMI AIRPORT LLC,3499 NW 25 ST,MIAMI,33142,305-636-6000,786-546-4200,HOTL,190,Rooms,25.7993,-80.25214,902220.206388745,533446.244829074
-8958636.7881,2932858.7286,159,1079180070010,EVERGLADES MOTEL,AMARTI INC,605 S KROME AVE,HOMESTEAD,33030,305-247-4117,305-247-4117,MOTL,20,Rooms,25.46411,-80.4768,828785.256474163,411262.978369325
-8934768.8177,2975588.5869,160,0431200100440,EVERGLADES MOTEL,INNER CITY HOLDINGS OF MIAMI LLC,1421 SE 9 AVENUE,HIALEAH,33010,305-888-8797,,MOTL,16,Rooms,25.81017,-80.26239,898826.680695497,537374.971551657
-8939619.2153,2972333.9449,161,3031310070071,EXECUTIVE AIRPORT HOTEL,EXECUTIVE AIRPORT HOTEL INC,6700 NW 13 ST,MIAMI,33126,305-871-3781,305-871-3781,MOTL,90,Rooms,25.78384,-80.30596,884542.31195458,527729.498060487
-8939501.1112,2979446.0865,162,0430120063320,EXECUTIVE PALACE HOTEL,EXECUTIVE PALACE HOTEL INC,2125 W OKEECHOBEE RD,HIALEAH,33010,,,HOTL,60,Rooms,25.84136,-80.3049,884780.998156995,548635.811890826
-8939805.792,2969807.939,163,0140020460010,EXECUTIVE TROPIC GARDENS,TROPIC GARDEN INVESTMENT INC,6925 SW 8 ST,MIAMI,33144,,,HOTL,56,Rooms,25.76341,-80.30765,884029.810682997,520299.593300909
-8936314.1075,2970818.5709,164,0141060182550,EXTACY MOTEL,TAMAS CORP,4911 W FLAGLER ST,MIAMI,33134,305-648-1385,305-648-1385,MOTL,11,Rooms,25.77158,-80.27627,894336.811394412,523326.685343824
-8939375.3292,2971690.2685,165,3030510990015,EXTENDED STAY AMERICA,ESA P PORTFOLIO OPERATING LESSEE LLC,6605 NW 7 ST,MIAMI,33126,305-260-0085,980-345-1600,HOTL,149,Rooms,25.77864,-80.30377,885273.249140996,525840.873884991
-8942990.5822,2973634.8266,166,3530340410010,EXTENDED STAY AMERICA #1600,ESA P PORTFOLIO OPERATING LESSEE LLC,8655  NW 21 TERRACE,MIAMI,33122,786-331-7717,980-345-1600,HOTL,109,Rooms,25.79436,-80.33626,874557.186911747,531502.499044657
-8933741.7708,2968107.4057,167,0141160092360,EXTENDED STAY AMERICA #1740,ESA P PORTFOLIO OPERATING LESSEE LLC,3640 SW 22 ST,MIAMI,33145,305-443-7444,980-345-1600,HOTL,96,Rooms,25.74965,-80.25317,901986.711776994,515396.789786324
-8927692.1833,2969517.0072,168,0141380012180,EXTENDED STAY AMERICA #1760,ESA P PORTFOLIO OPERATING LESSEE LLC,298 SW 15 RD,MIAMI,33129,305-856-3700,980-345-1600,HOTL,107,Rooms,25.76105,-80.19882,919849.624541912,519647.002414487
-8941435.7083,2973797.6923,169,3530340430030,EXTENDED STAY AMERICA #1762,ESA P PORTFOLIO OPERATING LESSEE LLC,7750 NW 25 ST,MIAMI,33122,305-716-9005,980-345-1600,HOTL,98,Rooms,25.79568,-80.32229,879150.560270913,532004.685376242
-8943154.2947,2974981.592,170,,EXTENDED STAY AMERICA #9639,ESA P PORTFOLIO OPERATING LESSEE LLC,8720 NW 33RD ST,MIAMI,33172,,980-345-1600,HOTL,150,Rooms,25.80526,-80.33772,874053.375255328,535458.967181571
-8937056.9559,2975468.991,171,0531190250020,EXTENDED STAY AMERICA #9641,ESA P PORTFOLIO OPERATING LESSEE LLC,101 FAIRWAY DR,MIAMI,33166,305-870-0448,980-345-1600,HOTL,102,Rooms,25.8092,-80.28295,892066.249990661,536986.060584076
-8919289.2247,2975247.5045,172,0232260560001,FAENA HOTEL MIAMI BEACH,3201 HOTEL LLC,3201 COLLINS AVE,MIAMI BEACH,33140,,305-206-5752,HOTL,182,Rooms,25.80741,-80.12334,944582.17317383,536652.996289574
-8934854.2483,2972196.2346,173,0131320430010,FAIRFIELD INN & SUITES MIAMI SOUTH,MIA HOSPITALITY LLC,4101 NW 11 ST,MIAMI,33126,786-456-2100,,HOTL,125,Rooms,25.78273,-80.26316,898630.012781747,527401.138152905
-8942052.4874,2975696.6321,174,3530270010125,FAIRFIELD INN BY MARRIOTT,36TH STREET HOSPITALITY LLC,8051 NW 36 ST,DORAL,33166,305-592-3393,305-592-3393,HOTL,133,Rooms,25.81104,-80.32782,877299.020994995,537577.240175992
-8926474.4986,2971390.6878,175,,FAIRWAY INN,PATEL NAVNIT,100 U S 1,FLORIDA CITY,33034,305-248-4202,305-248-4202,MOTL,160,Rooms,25.77621,-80.18789,923415.934338413,525178.38078741
-8920225.6009,2971934.1137,176,,FAIRWIND HOTEL,MLB FAIRWINDS LLC,1000-1030 COLLINS AVE,MIAMI BEACH,33139,954-558-9768,,HOTL,100,Rooms,25.78061,-80.13175,941878.923659079,526893.95773682
-8920181.2033,2974092.5942,177,0232270400001,"FARDAY, STEPHEN",FARDAY STEPHEN,2135 WASHINGTON CT TH-3 WEST,MIAMI BEACH,33139,917-674-4774,305-447-0123,HOTL,1,Rooms,25.79807,-80.13135,941968.312259831,533240.560529158
-8920532.3553,2971275.9951,178,0242030091920,FBH FASHION BOUTIQUE HOTEL,536 WASHINGTON LLC,534 WASHINGTON AVE,MIAMI BEACH,33139,305-673-2550,305-673-2550,HOTL,50,Rooms,25.77528,-80.1345,940984.812258329,524952.999020323
-8919933.1785,2973359.5507,179,0232340190550,FDR LOUNGE/ DELANO,BEACH HOTEL ASSOCIATES LLC,1685 COLLINS AVE,MIAMI BEACH,33139,305-674-5786,305-514-1968,HOTL,208,Rooms,25.79214,-80.12912,942715.668048579,531090.424737573
-8921197.7929,2968962.7697,180,3042090020040,FISHER ISLAND COTTAGES,FISHER ISLAND CLUB INC,1 FISHER ISLAND,MIAMI,33109,305-535-6000,305-968-5170,MOTL,15,Rooms,25.75657,-80.14048,939061.92634033,518138.136993907
-8948237.2495,2982928.2825,181,,FLAGLER STATION RESIDENCE INN,DVI CARDEL FLAGLER RESIDENCE LLC,11500 NW 105 ST,MIAMI,33178,561-207-2778,561-207-2778,HOTL,123,Rooms,25.86951,-80.38338,858921.267724328,558738.374690905
-8957312.8521,2934814.0176,182,1079070260082,FLORIDIAN HOTEL OF HOMESTEAD,FLORIDIAN HOTEL INC,990 N HOMESTEAD BLVD,HOMESTEAD,33030,305-247-7020,,MOTL,145,Rooms,25.47996,-80.46491,832686.06330508,417041.720748827
-8920609.4464,2971012.7244,183,0242033240001,"FOUNTAIN CONDOMINIUM HOTEL ASSOCIATION, INC. (THE)","FOUNTAIN CONDOMINIUM HOTEL ASSOCIATION, INC. (THE)",334  EUCLID AVE,MIAMI BEACH,33139,305-775-9996,,HOTL,34,Rooms,25.77315,-80.1352,940761.987244662,524177.41395732
-8934240.284,2966327.1837,184,0141170031011,FOUR POINT BY SHERATON,GABLES HOTEL GROUP LLC,3861 BIRD RD,MIAMI,33146,305-593-6366,305-593-6366,HOTL,103,Rooms,25.73524,-80.25764,900542.122802664,510152.842268988
-8941058.3447,2975400.7054,185,3030260040011,FOUR POINTS BY SHERATON MIAMI AIRPORT,36TH STREET THREE LLC,3570 NW 74 AVE,MIAMI,33122,305-789-2763,,HOTL,124,Rooms,25.80865,-80.31889,880241.563666329,536722.522397242
-8919167.1877,2976263.4646,186,0232260012150,FOUR POINTS HTL ITT SHERATON,CHARLES BERNARD LTD,4343 COLLINS AVE,MIAMI BEACH,33140,305-532-3311,305-532-3311,HOTL,216,Rooms,25.81562,-80.12225,944922.935943745,539641.685522154
-8926910.2954,2969249.9103,187,0141390780001,FOUR SEASONS HOTEL MIAMI,VII MP MIAMI HOTEL OWNER LLC,1435 BRICKELL AVE,MIAMI,33131,305-358-3535,,HOTL,221,Rooms,25.75889,-80.1918,922166.203898247,518875.689980738
-8919053.4763,2983837.5396,188,1422350470001,FOUR SEASONS HOTEL THE SURF CLUB,SC HOTEL PROPERTY LLC,9011 COLLINS AVE,SURFSIDE,33154,305-381-3333,786-482-2212,HOTL,77,Rooms,25.87686,-80.12122,945110.158666413,561900.534048989
-8920285.2109,2971770.563,189,0242030040430,FRANKLIN HOTEL,QUEENS GROUP LLC,860 COLLINS AVE,MIAMI BEACH,33139,305-587-5100,917-655-1967,HOTL,15,Rooms,25.77928,-80.13228,941705.87282408,526411.934750743
-8919606.6395,2974849.6677,190,0232260010900,FREEHAN HOTEL - GUEST HOUSE,SYDELL INDIAN CREEK LLC,233 27 STREET,MIAMI BEACH,33140,,646-752-7005,HOTL,15,Rooms,25.80419,-80.12619,943651.809548996,535477.311304986
-8919637.4869,2974884.7995,191,0232260010910,FREEHAND MIAMI,SYDELL INDIAN CREEK LLC,2727 INDIAN CREEK DR,MIAMI BEACH,33140,305-531-2727,305-531-2727,HOTL,64,Rooms,25.80447,-80.12646,943559.951464996,535579.97776632
-8920264.8428,2971265.2977,192,0242030020050,FRITZ,ROMINA AT THE BEACH LLC,524 OCEAN DR,MIAMI BEACH,33139,,,HOTL,22,Rooms,25.7752,-80.1321,941775.872355994,524926.748416655
-8936554.3086,2970803.0467,193,0141060290030,G G MOTEL,STATE FUND CORP,5121 W FLAGLER ST,MIAMI,33134,305-443-2868,,MOTL,16,Rooms,25.77146,-80.27843,893626.94339158,523277.145744741
-8935853.2689,2969872.0911,194,0341070020010,GABLES COVE,CUERNOS MANAGEMENT LLC,4700 SW 8 ST,CORAL GABLES,33134,305-634-6865,305-634-6865,MOTL,31,Rooms,25.76393,-80.27213,895714.581276663,520551.18597357
-8935332.066,2964671.1787,195,0341190042980,GABLES INN,DI-SOLE HOTEL LLC,730 S DIXIE HWY,CORAL GABLES,33146,305-661-7999,,MOTL,32,Rooms,25.72184,-80.26745,897340.48222433,505263.940301403
-8926699.494,2972505.703,196,0132310700001,GABRIEL,CGI 1100 BISCAYNE MANAGEMENT LLC,1100 BISCAYNE BLVD,MIAMI,33132,,786-581-4800,HOTL,129,Rooms,25.78523,-80.1899,922730.626653913,528452.533359826
-8920039.2165,2973361.7682,197,0232340190640,GALE SOUTH BEACH/ REGENT HOTAL,COLLINS HOTEL ASSOCIATES LLC,1690 COLLINS AVE,MIAMI BEACH,33139,305-673-0199,786-427-1149,HOTL,87,Rooms,25.79216,-80.13007,942402.186720163,531094.87190716
-8958113.16889999,2933381.9064,198,1079180000120,GARDEN INN HOMESTEAD,"DJ LODGINGS, LLC",51 SOUTH HOMESTEAD BLVD,HOMESTEAD,33030,305-246-5898,,MOTL,109,Rooms,25.46835,-80.4721,830331.07785758,412811.223304324
-8919804.83799999,2974331.8241,199,0232260010610,GATES HOTEL,CENTURIAN COLLINS PROPERTY OWNER LLC,2360 COLLINS AVE,MIAMI BEACH,33139,305-860-9444,305-860-9444,HOTL,235,Rooms,25.8,-80.12798,943076.098101996,533951.173281156
-8919432.44079999,2975216.5281,200,0232260011370,GENERATOR,G 3120 COLLINS LLC,3120 COLLINS AVENUE,MIAMI BEACH,33140,,,HOTL,103,Rooms,25.80716,-80.12462,944159.499806579,536559.124101989
-8920121.93469999,2972855.7303,201,0232340191060,GENEVA HOTEL,OCEAN BEACH PROPERTIES INC,1520 COLLINS AVENUE,MIAMI BEACH,33139,305-538-7464,,HOTL,31,Rooms,25.78806,-80.13082,942167.499525495,529605.560909405
-8921365.68869999,2972387.0999,202,0232330180060,GIUEDO REALTY LLC,GIUEDO REALTY LLC,1311 W AVE,MIAMI BEACH,33139,305-794-8330,305-674-9083,HOTL,7,Rooms,25.78427,-80.142,938499.936322577,528203.686416574
-8926284.3048,2973290.5793,203,0132310480001,GLOBAL GRAND MANAGEMENT,GLOBAL GRAND MANAGEMENT INC,1717 N BAYSHORE DR STE 240,MIAMI,33132,305-767-5890,305-767-5890,HOTL,40,Rooms,25.79158,-80.18617,923943.686235663,530767.562522404
-8919076.7967,2977382.1583,204,0232230020135,GRAND BEACH HOTEL,MB FLORIDA LIMITED LLC,4835 COLLINS AVE,MIAMI BEACH,33140,305-799-0244,305-799-0244,HOTL,435,Rooms,25.82467,-80.12143,945168.109337911,542931.491278492
-8919920.805,2985132.3188,205,1322270011100,GRAND BEACH HOTEL BAY HARBOR,BAY HARBOR HOTEL LLC,9601 E BAY HARBOR DR,BAY HARBOR ISLANDS,33154,,,HOTL,96,Rooms,25.88732,-80.12901,942522.999470662,565687.059940487
-8919134.0363,2984760.5226,206,1422350070020,GRAND BEACH HOTEL SURFSIDE,BEACH HOUSE HOTEL LLC,9449 COLLINS AVE,SURFSIDE,33154,305-799-0244,305-799-0244,HOTL,268,Rooms,25.88432,-80.12194,944854.061081495,564610.374429822
-8919222.0856,2984741.349,207,1422350070450,GRAND BEACH HOTEL SURFSIDE,BEACH HOUSE HOTEL LLC,9418 COLLINS AVE,SURFSIDE,33154,305-799-0244,305-799-0244,HOTL,73,Rooms,25.88416,-80.12273,944594.373608746,564552.310897656
-8939261.2671,2969810.1119,208,0140010200410,GRAND EMPEROR HOTEL,BRICKELL HOTEL INVESTMENTS INC,6581 SW 8 ST,MIAMI,33144,305-260-9408,305-260-9408,HOTL,32,Rooms,25.76343,-80.30275,885639.686072163,520314.468599238
-8942239.11819999,2972273.9749,209,3530340470001,GREENPOINT SUITES DORAL AIRPORT WEST,GREENPOINT DORAL INVESTMENT GROUP LLC,1212 NW 82 AVE,MIAMI,33126,305-629-8755,305-629-8755,HOTL,112,Rooms,25.78336,-80.3295,876798.704082247,527513.072640322
-8920199.93049999,2973291.3184,210,0232340190750,GREENVIEW HOTEL,GREENVIEW HOTEL LLC,1671 WASHINGTON AVE,MIAMI BEACH,33139,305-531-6588,305-538-4361,HOTL,47,Rooms,25.79159,-80.13152,941928.497706912,530884.624296159
-8929776.83149999,2966526.7362,211,0141140020010,GROVE ISLE,GROVE ISLE ASSOCIATES LLLP,4 GROVE ISLE DR,MIAMI,33133,305-858-8300,305-860-4302,HOTL,49,Rooms,25.73686,-80.21755,913738.249953661,510816.029262826
-8926668.61809999,2971598.2729,212,0141370760001,GUILD (THE),GUILD TRAVEL INC,230 NE 4 ST,MIAMI,33128,786-219-7099,512-623-7480,HOTL,64,Rooms,25.77789,-80.18963,922838.310493663,525785.185019992
-8925859.85219999,2981695.4894,213,1132060090010,HACIENDA DEL FERDINAND,LEUNG VENTURE INC,9101 BISCAYNE BLVD,MIAMI,33138,305-754-9575,305-754-9575,MOTL,38,Rooms,25.85954,-80.18236,925044.747025661,555477.373010822
-8920125.49709999,2972786.4924,214,0232340191190,HALL HOTEL,HADDON HALL HOTEL OPERATOR LLC,1500 COLLINS AVE,MIAMI BEACH,33139,305-531-1251,305-531-1251,HOTL,164,Rooms,25.7875,-80.13085,942158.312535994,529401.935660489
-8937747.30929999,2975388.5222,215,,HAMPTON INN & SUITES,AIRPORT HOTEL GROUP LTD,777 NW 57 AVE,MIAMI,33126,2625400,,HOTL,147,Rooms,25.80855,-80.28916,890027.249475494,536738.464294493
-8948391.88559999,2975712.0758,216,3530300310010,HAMPTON INN & SUITES,APPLE NINE HOSPITALITY MANAGEMENT INC,11600 NW 41 ST,DORAL,33178,305-500-9300,305-500-9300,HOTL,121,Rooms,25.81116,-80.38477,858563.740552247,537530.984034903
-8926679.66819999,2975477.1431,217,0132300030350,HAMPTON INN & SUITES,MIDTOWN LODGING LLC,3450 BISCAYNE BLVD,MIAMI,33137,786-581-0600,423-664-5959,HOTL,151,Rooms,25.80926,-80.18973,922735.469820078,537188.003749743
-8927161.96019999,2969692.9058,218,,HAMPTON INN & SUITES MIAMI BRICKELL DOWNTOWN,BRICKELL HOTEL GROUP LLLP,50 SW 12 ST,MIAMI,33130,305-377-9400,305-446-0852,HOTL,221,Rooms,25.76248,-80.19406,921414.142738327,520173.797620744
-8954006.87939999,2934635.3768,219,1079090390020,HAMPTON INN & SUITES MIAMI-SOUTH/HOMESTEAD,PRIME HOTEL GROUP OF HOMESTEAD LLC,2855 NE 9 ST,HOMESTEAD,33033,305-257-7000,814-278-7212,HOTL,126,Rooms,25.47851,-80.43521,842485.458076328,416555.666274741
-8932208.80259999,2966724.8829,220,0141160280240,HAMPTON INN HOTEL,GROVE HOTEL GROUP LTD,2800 SW 28 TERR,MIAMI,33133,305-448-2800,305-448-2800,HOTL,137,Rooms,25.73846,-80.23939,906542.996955745,511356.746685326
-8941872.84559999,2975249.2779,221,3530270310011,HAMPTON INN MIAMI - AIRPORT WEST,LVP HMI MIAMI HOLDING CORP,3620 NW 79TH AVE,DORAL,33166,305-513-0777,305-513-0777,HOTL,127,Rooms,25.80742,-80.32621,877836.658043079,536265.029545821
-8934876.98419999,2975049.58,222,0531290000010,HAMPTON INN MIAMI AIRPORT EAST,MIAMI AIRPORT LODGING LLC,3449 NW 42 AVE,MIAMI,33142,786-801-3136,301-345-8700,HOTL,127,Rooms,25.80581,-80.26337,898515.874230497,535788.826758072
-8939736.69179999,2961251.8026,223,3040350420010,HAMPTON INN MIAMI DADELAND,KELCO DADELAND ASSOCIATES LTD,8200 SW 70 AVE,MIAMI,33143,2690072,,HOTL,131,Rooms,25.69417,-80.30702,884366.24931458,495134.43628224
-8920488.64849999,2971083.2581,224,0242030030810,HARRISON HOTEL,HARRISON HOTEL INC,411 WASHINGTON AVE,MIAMI BEACH,33139,305-672-3250,305-672-4600,HOTL,55,Rooms,25.77372,-80.13412,941117.748016078,524387.149102159
-8926771.20379999,2969740.3007,225,0102100301130,HC MIAMI FL PANORAMA,CONCORD AZTEC BRICKELL LLC,1102 BRICKELL BAY DR,MIAMI,33131,305-788-2130,,HOTL,208,Rooms,25.76286,-80.19055,922568.601059329,520320.243193991
-8920060.45219999,2972697.6241,226,0232340120040,HENROSA HOTEL,VENTURA WAY ONE LLC,1435 COLLINS AVE,MIAMI BEACH,33139,,,HOTL,40,Rooms,25.78678,-80.13027,942352.311819911,529141.935524322
-8937177.03539999,2977614.2675,227,0431180012210,HIALEAH AIRPORT MOTEL,TAURUS MANAGEMENT LLC,131 W 5TH ST,HIALEAH,33010,305-887-2718,786-402-9316,MOTL,12,Rooms,25.82655,-80.28402,891677.048997413,543289.407557406
-8937189.23029999,2977489.1326,228,,HIALEAH AIRPORT MOTEL,TAURUS MANAGEMENT LLC,131-161 W OKEECHOBEE RD,HIALEAH,33010,305-887-2718,,MOTL,44,Rooms,25.82553,-80.28413,891643.01527283,542921.44667916
-8935560.95429999,2976184.808,229,0431200260190,HIALEAH MOTEL,HIALEAH MOTEL INC,555 E OKEECHOBEE RD,HIALEAH,33010,305-887-8756,305-887-8756,MOTL,92,Rooms,25.81499,-80.26951,896475.874701578,539114.373256572
-8918945.89929999,2979800.1356,230,0232110070240,HILTON CABANA MIAMI BEACH,RLJ CABANA MIAMI BEACH LESSEE LLC,6261 COLLINS AVE,MIAMI BEACH,33140,305-867-6669,305-867-6669,HOTL,231,Rooms,25.84422,-80.12025,945507.374079328,550040.061378904
-8919462.64499999,2975052.5436,231,0232260011110,HILTON GARDEN INN,ROYAL POLO HOTEL LLC,2940 COLLINS AVE,MIAMI BEACH,33140,305-592-3393,301-389-3856,HOTL,96,Rooms,25.80583,-80.12489,944073.435346164,536076.498754904
-8940992.02689999,2975302.2085,232,3030260040010,HILTON GARDEN INN MIAMI AIRPORT WEST,"36TH STREET TWO, LLC",3550 NW 74 AVE,MIAMI,33122,,,HOTL,189,Rooms,25.80785,-80.3183,880439.059662413,536434.019037239
-8928234.79169999,2968278.4443,233,0141390730010,HILTON GARDEN INN MIAMI BRICKELL SOUTH,BLUE LAGOON HOSPITALITY LLC,2500 BRICKELL AVENUE,MIAMI,33129,,305-854-2070,HOTL,129,Rooms,25.75103,-80.2037,918267.324228831,515995.055322073
-8947400.72539999,2973032.1187,234,2530310270030,HILTON GARDEN INN MIAMI DOLPHIN MALL,PROCACCI DOLPHIN LLC,1695 NW 111 AVE,SWEETWATER,33172,305-500-9077,561-416-1400,HOTL,132,Rooms,25.78949,-80.37588,861530.294330411,529666.940051742
-8936578.95619999,2972098.526,235,3031310250050,HILTON MIAMI AIRPORT,MIAMI AIRPORT LESSEE LLC,5101 BLUE LAGOON DR,MIAMI,33126,305-262-1000,305-262-1000,HOTL,508,Rooms,25.78194,-80.27865,893533.22212233,527085.652891487
-8943715.83549999,2960297.2168,236,3050040520010,HILTON MIAMI DADELAND,BHE HOSPITALITY LLC,9100 N KENDALL DR,MIAMI,33176,,,HOTL,184,Rooms,25.68644,-80.34276,872608.93621508,492265.686442323
-8926543.23339999,2973322.3284,237,0132310570001,HILTON MIAMI DOWNTOWN,RESORTS WORLD OMNI LLC,1601 BISCAYNE BLVD,MIAMI,33132,305-374-0000,305-374-0000,HOTL,527,Rooms,25.79184,-80.18851,923177.746166494,530856.175862238
-8919177.91109999,2976199.49,238,0232260012155,HOLIDAY INN,CHARLES BERNARD LTD,4333 COLLINS AVE,MIAMI BEACH,33140,305-532-3311,305-532-3311,HOTL,250,Rooms,25.81511,-80.12234,944892.499324828,539453.43491441
-8941639.59369999,2982712.1964,239,2730030010030,HOLIDAY INN,LCP HIALEAH GARDENS HOSPITALITY LLC,7707 NW 103 ST,HIALEAH GARDENS,33016,,,HOTL,259,Rooms,25.86776,-80.32411,878413.26515758,558199.45319657
-8926581.49409999,2971601.5184,240,0101080301010,HOLIDAY INN DOWNTOWN PORT OF MIAMI,340 BISCAYNE OWNER LLC,340 BISCAYNE BLVD,MIAMI,33132,305-789-2763,305-789-2763,HOTL,200,Rooms,25.77792,-80.18884,923095.809978664,525796.312622406
-8958598.47149999,2929867.922,241,1679300010421,HOLIDAY INN EXPRESS,RA AND RE INC.,35200 SOUTH DIXIE HWY,FLORIDA CITY,33034,,305-247-6621,HOTL,105,Rooms,25.43985,-80.47646,828933.444169912,402446.667917989
-8936608.7308,2975381.0637,242,0531190134470,HOLIDAY INN EXPRESS,FIRST CHOICE HOTEL HOLDINGS INC,5125 NW 36 ST,MIAMI SPRINGS,33166,305-887-2153,301-592-3800,MOTL,110,Rooms,25.80849,-80.27892,893392.35626233,536734.84848807
-8941740.5343,2984609.4413,243,0420340010010,HOLIDAY INN EXPRESS & SUITES - MIAMI/HIALEAH,BURLINGTON HOSPITALITY INC,6650 W 20 AVE,HIALEAH,33016,305-362-7777,305-803-7455,HOTL,146,Rooms,25.88309,-80.32502,878086.43608683,563771.498482905
-8948171.0012,2960132.9227,244,3050060000592,HOLIDAY INN EXPRESS & SUITES KENDALL EAST MIAMI,HIT PORTFOLIO 1 OWNER LLC,11520 SW 88 ST,MIAMI,33176,305-279-8688,305-279-8688,HOTL,66,Rooms,25.68511,-80.38279,859430.935996328,491718.739701577
-8934907.9422,2974310.2969,245,3031290020020,HOLIDAY INN EXPRESS AND SUITES MIAMI ARPT AND INTERMODAL AREA,2601 MIA LLC,2601 NW 42 AVE,MIAMI,33142,786-878-5555,786-878-5555,HOTL,102,Rooms,25.79983,-80.26364,898436.535150331,533615.176249743
-8942707.4576,2975476.9731,246,3530270010291,HOLIDAY INN EXPRESS MIAMI AIRPORT DORAL,HOTEL 8436 NW 36 OPCO LP,8436 NW 36 ST,MIAMI,33166,305-592-4799,502-489-3737,HOTL,103,Rooms,25.80926,-80.33371,875366.625253495,536921.748704821
-8934893.7624,2975461.9957,247,0531200310180,HOLIDAY INN HOTEL,MIAMI SPRINGS RESORTS ASSOC,1111 S ROYAL POINCIANA,MIAMI SPGS,33166,305-885-1941,305-885-1941,MOTL,224,Rooms,25.80914,-80.26351,898459.502295997,537000.806945659
-8942916.6583,2974819.316,248,3530270520050,HOLIDAY INN MIAMI/DORAL AREA,HOTEL 3255 NORTH WEST 87 OPCP LP,3255 NW 87 AVE,MIAMI,33172,305-500-9000,502-489-3737,HOTL,120,Rooms,25.80394,-80.33558,874758.114659496,534985.505201988
-8940468.8021,2969700.1444,249,3040110040390,HOLIDAY MOTEL,CAMPANILE B MARILYNN,7290 SW 8 ST,MIAMI,33144,,,MOTL,9,Rooms,25.76254,-80.3136,882071.247670997,519972.374467157
-8958618.6488,2932463.4886,250,1679190060100,HOLIDAY MOTEL,NEW LAXMI LLC,1405 N KROME AVE,FLORIDA CITY,33034,305-790-3425,305-790-3425,MOTL,22,Rooms,25.4609,-80.47664,828843.593627829,410098.140803993
-8958561.48589999,2931161.9026,251,1679190010381,HOME 2 SUITES BY HILTON,RD & RD INC,77 NE 3 ST,FLORIDA CITY,33034,305-248-3155,305-247-3414,HOTL,96,Rooms,25.45034,-80.47612,829028.099820495,406261.907006659
-8941113.49889999,2975298.0069,252,3030260040020,HOMEWOOD SUITES BY HILTON MIAMI AIRPORT WEST,36TH STREET ONE LLC,3590 NW 74 AVE,MIAMI,33122,,,HOTL,124,Rooms,25.80782,-80.31939,880080.121403914,536419.81073232
-8947400.72539999,2973032.1187,253,2530310270030,HOMEWOOD SUITES BY HILTON MIAMI DOLPHIN MALL,PROCACCI DOLPHIN LLC,1695 NW 111 AVE,SWEETWATER,33172,305-500-9019,561-416-1400,HOTL,100,Rooms,25.78949,-80.37588,861530.294330411,529666.940051742
-8937219.03949999,2972060.1768,254,3031310250081,HOMEWOOD SUITES MIAMI AIRPORT BLUE LAGOON,APPLE SEVEN SERVICES MIAMI INC,5500 BLUE LAGOON DR,MIAMI,33126,305-261-3335,305-261-3335,HOTL,159,Rooms,25.78163,-80.28441,891641.691456579,526962.584568076
-8927684.45949999,2969203.7675,255,0141390080140,HOMEWOOD SUITES MIAMI DOWNTOWN BRICKELL,BRICKELL LODGING LLC,1750 SW 1 AVE,MIAMI,33129,305-285-7112,305-285-7112,HOTL,102,Rooms,25.75852,-80.19875,919878.059852496,518726.029190823
-8920190.38089999,2971629.9983,256,0242030040350,HOTEL,HOTEL OF COLLINS AVENUE LLC,800 OCEAN DR,MIAMI BEACH,33139,305-531-2222,305-531-4411,HOTL,20,Rooms,25.77815,-80.13143,941988.936234329,526000.498565741
-8920081.59709999,2973550.6251,257,0232340190370,HOTEL 18,HOTEL 18 GROUP LLC,1775 JAMES AVE,MIAMI BEACH,33139,305-987-3597,305-987-3597,HOTL,44,Rooms,25.79368,-80.13045,942273.247017413,531649.250063486
-8932343.05719999,2965364.9969,258,0141212180001,HOTEL ARIA,YC COCONUT GROVE HOTEL BJ LLC,2889 MCFARLANE RD,COCONUT GROVE,33133,305-529-2828,,HOTL,134,Rooms,25.72746,-80.2406,906169.000000328,507354.717287824
-8920392.18639999,2971922.7951,259,0242030090130,HOTEL ASTOR,ASTOR EB-5 LLC,956 WASHINGTON AVE,MIAMI BEACH,33139,305-577-9977,305-577-9977,HOTL,40,Rooms,25.78052,-80.13324,941386.68448608,526857.436484404
-8919458.55459999,2975137.0332,260,0232260011220,HOTEL BELLAMAR,EAGLE CAPITAL INVESTMENT,220 31ST  (220-224-230 31 ST),MIAMI BEACH,33140,305-531-0977,305-726-4064,HOTL,54,Rooms,25.80651,-80.12486,944083.873317413,536324.936578237
-8920230.52399999,2974049.2516,261,0232270140050,HOTEL BELLEZA,2115 WASHINGTON AVENUE MB LLC,2115 WASHINGTON AVE,MIAMI BEACH,33139,305-740-1430,,HOTL,81,Rooms,25.79772,-80.13179,941823.372589078,533112.184473574
-8920053.69169999,2972381.7016,262,0232340080510,HOTEL CARDOZO,HOTEL CARDOZO INC,1300 OCEAN DR,MIAMI BEACH,33139,305-534-2135,,HOTL,46,Rooms,25.78423,-80.1302,942378.430205997,528213.254310824
-8934305.32929999,2968183.0182,263,0341080890001,HOTEL COLONNADE CORAL GABLES,MENUDO LESSEE LLC,180 ARAGON AVE,CORAL GABLES,33134,305-441-2600,678-349-0952,HOTL,157,Rooms,25.75026,-80.25823,900319.075348496,515609.747037575
-8920483.73149999,2971033.3601,264,0242030030970,HOTEL COLORETTA,CASA COLORETTA LLC,355 WASHINGTON,MIAMI BEACH,33139,786-359-4658,305-505-5880,HOTL,8,Rooms,25.77332,-80.13407,941133.248641245,524240.529972821
-8919323.4753,2975682.1516,265,0232260011710,HOTEL CROYDON,3720 CROYDON LLC,3720 COLLINS AVE,MIAMI BEACH,33140,305-398-7000,305-398-7000,HOTL,83,Rooms,25.81092,-80.12364,944472.436188579,537929.93632099
-8921581.1458,2973170.1135,266,0232330140170,HOTEL GAYTHERING,1409 HOTEL INC,1409 LINCOLN RD,MIAMI BEACH,33139,786-284-1176,305-308-5770,HOTL,25,Rooms,25.79061,-80.14392,937848.060657829,530501.56239824
-8926108.0426,2979382.5188,267,0132070402510,HOTEL MIMO,NW INVESTORS LLC,7126 BISCAYNE BLVD,MIAMI,33138,786-602-0119,786-602-0119,HOTL,21,Rooms,25.84084,-80.18459,924353.717895914,548676.386940904
-8918996.5645,2980756.6207,268,0232110630001,HOTEL NORMAN,NORTH BEACH TAVERN LLC,6770 COLLINS AVE,MIAMI BEACH,33141,305-861-7120,305-861-7120,HOTL,29,Rooms,25.85195,-80.12071,945338.871135496,552849.671573326
-8920068.1485,2972266.5479,269,0232340080390,HOTEL OCEAN,1236 OCEAN DRIVE LLC,1236 OCEAN DR,MIAMI BEACH,33139,305-672-2579,305-322-1005,HOTL,27,Rooms,25.7833,-80.13033,942337.929630827,527874.41476541
-8919291.4839,2976105.8623,270,0232260012100,HOTEL PIERRE,HOTEL PIERRE LLC,216 43 STREET,MIAMI BEACH,33140,786-768-2586,786-768-2586,HOTL,51,Rooms,25.81435,-80.12337,944558.687000331,539175.998133324
-8934334.0316,2968505.4703,271,0341080072230,HOTEL PLACE ST MICHEL,PLACE ST MICHEL INC,162 ALCAZAR AVE,CORAL GABLES,33134,305-444-1666,305-444-1666,HOTL,32,Rooms,25.75287,-80.25849,900228.873757247,516557.528278492
-8958534.0389,2933541.184,272,1079180080120,HOTEL REDLAND,REPRESENTATION RM LLC,5 S FLAGLER AVE,HOMESTEAD,33030,305-246-1904,954-399-0009,HOTL,13,Rooms,25.46964,-80.47588,829081.877271995,413275.776509076
-8920487.1151,2971016.1722,273,0242030030960,HOTEL ST AUGUSTINE,347 WASHINGTON INVESTMENT LLC,347 WASHINGTON AVE,MIAMI BEACH,33139,305-532-0570,305-532-0570,HOTL,24,Rooms,25.77318,-80.1341,941123.57772883,524189.926727571
-8920083.8939,2972173.8042,274,0232340080280,HOTEL VICTOR,1144 OD LLC,1144 OCEAN DR,MIAMI BEACH,33139,305-779-8700,305-779-8700,HOTL,91,Rooms,25.78255,-80.13047,942293.184641577,527601.434668325
-8920079.9792,2973030.0736,275,0232340190780,HYATT CENTRIC SOUTH BEACH,"1600 COLLINS AVENUE, LLC",1600 COLLINS AVENUE,MIAMI BEACH,33139,305-444-5002,305-444-5002,HOTL,105,Rooms,25.78947,-80.13044,942288.135439079,530118.935538821
-8934828.0594,2975123.9522,276,0531290210010,HYATT PLACE,MIA LEJEUNE LLC,3549 LEJEUNE RD,MIAMI,33142,305-444-5002,954-529-8810,HOTL,135,Rooms,25.80641,-80.26292,898659.247631412,536008.248891406
-8942042.202,2975371.878,277,3530270220050,HYATT PLACE MIAMI AIRPORT WEST/DORAL,HIT PORTFOLIO I TRS LLC,3655 NW 82 AVE,MIAMI,33166,305-718-8292,571-529-6141,HOTL,124,Rooms,25.80841,-80.32773,877334.294546496,536622.836901076
-8934024.4407,2968435.777,278,0341080073810,HYATT REGENCY CORAL GABLES HOTEL,HYATT CORP,50 ALHAMBRA PLAZA,CORAL GABLES,33134,305-441-1234,305-441-1234,HOTL,253,Rooms,25.75231,-80.2557,901145.434916247,516357.735042907
-8926832.5911,2970746.9235,279,0131370220020,HYATT REGENCY MIAMI HOTEL,HYATT EQUITIES LLC,400 SE 2 AVE,MIAMI,33131,305-358-1234,305-358-1234,HOTL,615,Rooms,25.771,-80.19111,922368.936432414,523279.030583493
-8937777.273,2972045.6492,280,3030510510100,HYATT SUMMERFIELD SUITES MIAMI AIRPORT,SUMMIT HOTEL TRS 130 LLC,5710 BLUE LAGOON DR,MIAMI,33126,,,HOTL,156,Rooms,25.78151,-80.28943,889991.730845746,526910.939986326
-8936362.0045,2970813.4596,281,0141060182530,ILLUSION MOTEL,DIAZ ROBERT,4995 W FLAGLER ST,MIAMI,33134,305-774-9736,305-774-9736,MOTL,15,Rooms,25.77154,-80.27671,894195.293960914,523310.879273072
-8920189.2055,2972283.1315,282,0232340081050,IMPALA HOTEL,AZCO INVESTMENTS LLC,1228 COLLINS AVE,MIAMI BEACH,33139,305-673-2021,305-673-2021,HOTL,17,Rooms,25.78343,-80.13143,941979.748916745,527920.810013823
-8936652.8029,2970742.2099,283,0141060230250,IMPERIALE MOTEL,COMIJO INC,5180 W FLAGLER ST,MIAMI,33134,305-448-3133,305-448-3133,MOTL,10,Rooms,25.77097,-80.27932,893336.738263328,523096.674320906
-8942951.6299,2974068.3468,284,3530270750010,INTER CONTINENTAL DORAL MIAMI,HOTEL GENPAR LTD,2505 NW 87 AVE,MIAMI,33172,305-468-1400,468-1400,HOTL,265,Rooms,25.79787,-80.3359,874665.892402995,532777.479762405
-8926189.7059,2970918.2315,285,0131360790010,INTERCONTINENTAL HOTEL MIAMI,DTRS INTERCONTINENTAL MIAMI LLC,100 CHOPIN PLAZA,MIAMI,33131,305-577-1000,305-577-1000,HOTL,644,Rooms,25.77239,-80.18532,924266.448385414,523794.438673407
-8921593.4547,2980678.9597,286,0232100110620,INTERNATIONAL INN MOTEL AT CSW,TSAY INTERNATIONAL INC,2301 NORMANDY DR,MIAMI BEACH,33141,305-866-7661,,MOTL,71,Rooms,25.85132,-80.14403,937668.059705496,552570.809598237
-8920136.8703,2972654.8483,287,0232340080750,ISLAND HOUSE,SHINDLER RICHARD,1428 COLLINS AVE,MIAMI BEACH,33139,305-864-2422,,HOTL,20,Rooms,25.78644,-80.13095,942127.24698133,529014.684466489
-8920301.9929,2971336.8203,288,0242030040080,ITHACA OF SOUTH BEACH HOTEL INC,ITHACA OF SOUTH BEACH HOTEL INC,601 COLLINS AVE,MIAMI BEACH,33139,305-604-9160,305-604-9160,HOTL,11,Rooms,25.77578,-80.13243,941664.659651913,525136.319191739
-8926839.5715,2969699.2363,289,0102100301170,J W MARRIOTT HOTEL MIAMI,M D M BRICKELL HOTEL GROUP LTD,1109 BRICKELL AVE,MIAMI,33131,3741224,305-671-5111,HOTL,296,Rooms,25.76253,-80.19116,922367.206120912,520198.251311988
-8921463.6471,2972801.3481,290,0232330880001,JACQUELINE SUITE HOTEL,JACQUELINE CONDOMINIUM ASSOCIATION INC,1321 15 ST,MIAMI BEACH,33139,786-378-9252,786-536-2106,HOTL,14,Rooms,25.78762,-80.14287,938202.435933329,529419.685296908
-8935734.7957,2969947.6644,291,0141050620010,JAMAICA MOTEL,JAMAICA MOTEL INC,4601 SW 8 ST,MIAMI,33134,305-445-2685,305-445-2685,MOTL,33,Rooms,25.76454,-80.27107,896063.623229496,520775.341693237
-8920150.3239,2973336.7396,292,0232340190710,JAMES HOTEL INC,TORR INC,1680 JAMES AVE,MIAMI BEACH,33139,305-531-1125,305-531-1125,HOTL,47,Rooms,25.79195,-80.13107,942074.249383911,531019.123042904
-8919954.1109,2972911.6742,293,0232340190960,JAMES ROYAL PALM (THE),RP HOTEL OPERATING CO INC,1545 COLLINS AVE,MIAMI BEACH,33139,720-284-6430,786-276-0102,HOTL,417,Rooms,25.78851,-80.12931,942662.499847829,529773.309589654
-8920377.461,2970942.297,294,0242030030530,JAZZ ON SOUTH BEACH,HUSA LH JZ LLC,321 COLLINS AVE,MIAMI BEACH,33139,607-592-8593,607-592-8593,HOTL,26,Rooms,25.77258,-80.13311,941449.185017247,523974.842512071
-8920440.1729,2970989.348,295,0242030030870,JULIA,336 COLLINS LLC,336 COLLINS AVE,MIAMI BEACH,33139,,786-301-1166,HOTL,29,Rooms,25.77297,-80.13367,941262.874694329,524111.967565909
-8932752.4961,2970853.0463,296,0141040130310,JULIA MOTEL,O O INVESTMENTS LLC,3030 W FLAGLER ST,MIAMI,33135,305-775-9388,305-775-9388,MOTL,24,Rooms,25.77186,-80.24428,904865.615796078,523487.161072738
-8926614.14819999,2970785.0441,297,0101140301050,JW MARRIOTT MARQUIS MIAMI,MET II HOTEL LLC,255 BISCAYNE BLVD WAY,MIAMI,33131,305-350-0750,305-671-5111,HOTL,357,Rooms,25.77131,-80.18914,923014.051283911,523395.086781822
-8920150.94549999,2973361.2987,298,0232340190720,KASKADES,300-17 INVESTMENT LLC,300 17 ST,MIAMI BEACH,33139,305-673-0199,786-427-1149,HOTL,25,Rooms,25.79215,-80.13108,942071.935740244,531091.31089066
-8951477.54259999,2955336.9485,299,3059140640060,KENDALL MIAMI HOLIDAY INN EXPRESS & SUITES,PINELANDS-KENDALL HOTEL LLC,13475 SW 131 ST,KENDALL,33186,786-837-2100,561-713-2224,HOTL,107,Rooms,25.64628,-80.4125,849711.408519413,477560.552466825
-8920143.03819999,2972153.0031,300,0232340080350,KENT HOTEL,1131 KENT LLC,1131 COLLINS AVE,MIAMI BEACH,33139,305-604-5068,305-604-5068,HOTL,50,Rooms,25.78238,-80.13101,942118.749294911,527539.124097407
-8948742.2343,2944580.4638,301,3069130060600,KENT MOTEL,KENT MOTEL INC,22345 S US HWY BX 103,GOULDS,33170,305-258-2114,305-258-2114,MOTL,20,Rooms,25.55914,-80.38792,857952.487837747,445926.487782322
-8926119.75889999,2979408.6408,302,0132070402500,KING MOTEL,GOD BLESS INVESTMENT ENT INC,7150 BISCAYNE BLVD,MIAMI,33138,305-757-2674,305-757-2674,MOTL,19,Rooms,25.84105,-80.18471,924318.624134079,548752.935016155
-8958414.84859999,2935059.3247,303,,KNIGHTS INN,NEW KRISHNA LLC,1223 NE 1 AVE,FLORIDA CITY,33034,305-247-6633,305-790-3477,MOTL,50,Rooms,25.48195,-80.47482,829417.481587663,417751.703908905
-8919304.3689,2976025.2536,304,0232260012030,L HOTEL,ALAMO HOTEL LLC,4121 INDIAN CREEK DR,MIAMI BEACH,33140,305-864-8885,305-864-8885,HOTL,40,Rooms,25.8137,-80.12347,944522.185432911,538938.81028749
-8935404.299,2969937.9476,305,0141050450170,LA CAMPINA MOTEL,B M C MOTEL CORP,4425 SW 8 ST,MIAMI,33134,305-442-1212,305-442-1212,MOTL,26,Rooms,25.76446,-80.2681,897040.903427161,520752.184587322
-8920186.7265,2972300.1009,306,0232340081040,LA FLORA HOTEL,1238 COLLINS AVE CORP,1238 COLLINS AVE,MIAMI BEACH,33139,305-531-3406,305-531-3406,HOTL,45,Rooms,25.78357,-80.1314,941986.74824658,527970.749218404
-8940847.024,2969668.3469,307,3040110220150,LA FUENTE HOTEL,LISMAR RESORTS INC,7470 SW 8 ST,MIAMI,33144,305-266-0070,305-266-0070,MOTL,33,Rooms,25.76228,-80.31699,880953.497609913,519873.065938741
-8936474.2319,2976929.464,308,0431190060250,LA FUENTE MOTEL,151 EAST OKEECHOBEE RD LLC,151 E OKEECHOBEE RD,HIALEAH,33010,305-871-1166,305-871-1166,MOTL,41,Rooms,25.82101,-80.27771,893764.873889994,541288.123830326
-8934743.3684,2975068.0052,309,0531290210020,LA QUINTA INN & SUITES #4040,CPLG FL PROPERTIES LLC,3501 NW 42 AVE LEJEUNE RD,MIAMI,33142,305-871-1777,,HOTL,152,Rooms,25.80596,-80.26216,898910.472850744,535845.198692575
-8942226.3278,2988440.2474,310,3220150100010,LA QUINTA INN & SUITES #7709,CPLG WELLESLEY PROPERTIES LLC,7925 NW 154 ST,MIAMI,33016,305-821-8274,,HOTL,97,Rooms,25.91405,-80.32938,876594.09261483,575015.810967989
-8943264.4163,2974196.9729,311,3530280160120,LA QUINTA INN & SUITES #980,CPLG FL PROPERTIES LLC,8730 NW 27 ST,MIAMI,33172,305-436-0830,,HOTL,143,Rooms,25.79891,-80.33872,873739.498914577,533150.935380325
-8940853.0696,2975640.4263,312,3030260170010,LA QUINTA INN 667,LQ MANAGEMENT LLC,7401 NW 36 ST,MIAMI,33166,,2144926614,MOTL,165,Rooms,25.81058,-80.31705,880844.579192579,537430.286401659
-8946341.4255,2947080.4724,313,3660070270010,LA QUINTA INN AND SUITES #1050,CPLG FL PROPERTIES LLC,10821 CARIBBEAN BLVD,MIAMI,33189,,2144926614,HOTL,107,Rooms,25.5794,-80.36635,865027.466469914,453322.755470075
-8919973.3218,2985139.8901,314,,LANDON,BHI HOTEL LLC,9660 E BAY HARBOR DR,BAY HARBOR ISLANDS,33154,305-868-4141,305-868-4141,HOTL,46,Rooms,25.88738,-80.12948,942367.741579078,565708.27151224
-8926531.16139999,2971303.7547,315,0101100202030,LEAMINGTON HOTEL,STANDARD MANAGEMENT SERVICES INC,307 NE 1 ST,MIAMI,33132,305-373-7783,786-301-1166,HOTL,94,Rooms,25.77551,-80.18839,923249.998318579,524921.747114323
-8924002.98399999,2984806.9221,316,3022290030020,LEEWARD MOTEL,LEEWARD MOTEL INC,11790 BISCAYNE BLVD,MIAMI,33181,305-893-4571,305-893-4571,MOTL,30,Rooms,25.88469,-80.16568,930472.236498747,564652.854003653
-8920063.98879999,2972300.8802,317,0232340080380,LESLIE HOTEL,OCEAN HOTELS INVESTMENTS CORP,1244 OCEAN DR,MIAMI BEACH,33139,305-494-0230,305-494-0230,HOTL,35,Rooms,25.78357,-80.13031,942349.559856914,527975.434904575
-8928871.05779999,2970409.6912,318,0141380031950,LIFE HOUSE LITTLE HAVANA,HUSA LH JF LLC,528 SW 9 AVE,MIAMI,33130,607-592-8593,607-592-8593,HOTL,33,Rooms,25.76828,-80.20942,916348.372686163,522250.873190992
-8919956.36149999,2973004.791,319,0232340190890,LOEWS MIAMI BCH HOTEL,MB REDEVELOPMENT LLC,1601 COLLINS AVE,MIAMI BEACH,33139,6041601,305-604-5489,HOTL,790,Rooms,25.78927,-80.12933,942654.037266329,530047.021640658
-8920260.29829999,2971903.9586,320,0232340081330,LOFT HOTEL,952 COLLINS AVE LLC,952 COLLINS AVE,MIAMI BEACH,33139,,424-291-5865,HOTL,22,Rooms,25.78036,-80.13206,941776.936002161,526804.622285575
-8919004.53739999,2979899.1504,321,0232110071500,LOMBARDY INN,LOMBARDY HOTEL CORP,6300 COLLINS AVE,MIAMI BEACH,33141,305-866-5424,305-866-5424,HOTL,66,Rooms,25.84502,-80.12078,945332.174626578,550329.863292739
-8920320.29909999,2970983.9211,322,0242030030460,LORD BALFOUR HOTEL,GREEN COMET LLC,344 OCEAN DRIVE,MIAMI BEACH,33139,305-673-0401,,HOTL,17,Rooms,25.77292,-80.1326,941617.372016829,524098.342593156
-8923157.24019999,2961299.2518,323,2442320290001,LORD BALFOUR HOTEL,GREEN COMET LLC,350 OCEAN DR,MIAMI BEACH,33139,305-755-5869,,HOTL,81,Rooms,25.69455,-80.15808,933412.065592829,495558.893110491
-8919578.45289999,2974636.6968,324,0232260010740,LORRAINE HOTEL,2601 COLLINS LLC,2601 COLLINS AVE,MIAMI BEACH,33140,305-864-3777,305-864-3777,HOTL,42,Rooms,25.80247,-80.12593,943739.275581412,534851.821742326
-8919143.96939999,2981145.0374,325,0232110010290,M BOUTIQUE HOTEL,ALPHA HOUSE INC AND M GROUP HOTELS INC,6945 ABBOTT AVE,MIAMI BEACH,33141,,,HOTL,11,Rooms,25.85509,-80.12203,944895.747677911,553988.062013075
-8920226.2517,2971447.085,326,0242030040010,MAJESTIC HOTEL,MAJESTIC HOTEL SOUTH BEACH LLC,660 OCEAN DR,MIAMI BEACH,33139,305-672-5858,,HOTL,49,Rooms,25.77667,-80.13175,941886.437423579,525461.997674242
-8933979.34409999,2966443.6054,327,0141170031320,MALIBU HOTEL,MALIBU HOTEL INC,2936 SW 37 CT,MIAMI,33134,305-442-9828,,HOTL,34,Rooms,25.73619,-80.25531,901311.856171329,510499.605683073
-8926149.29439999,2970087.2769,328,0142070030010,MANDARIN ORIENTAL MIAMI,SWIRE BRICKELL KEY HOTEL LTD,500 BRICKELL KEY DR,MIAMI,33131,5779999,,HOTL,329,Rooms,25.76567,-80.18496,924401.030793414,521351.855632074
-8918911.64289999,2992777.2942,329,3122020450001,MARENAS RESORT,BMC-THE BENCHMARK MANAGEMENT COMPANY,18683 COLLINS AVENUE,SUNNY ISLES BEACH,33160,305-503-6000,305-503-6000,HOTL,160,Rooms,25.94909,-80.11994,945352.859952662,588158.430680074
-8920200.71569999,2972236.6529,330,0232340081080,MARLIN HOTEL,MRK 1200 COLLINS AVENUE LLC,1200 COLLINS AVE,MIAMI BEACH,33139,305-695-3000,305-695-3000,HOTL,14,Rooms,25.78305,-80.13152,941946.624639161,527783.935943738
-8920029.50159999,2972546.4753,331,0232342020001,MARRIOTT VACATION CLUB SOUTH BEACH,MARRIOTT RESORTS HOSPITALITY CORPORATION,1410 OCEAN DR,MIAMI BEACH,33139,407-206-6455,407-206-6455,HOTL,48,Rooms,25.78556,-80.13,942446.73846833,528698.164430238
-8919904.20049999,2973491.9804,332,0232340190490,MARSEILLES HOTEL,MCM CORP,1741 COLLINS AVE,MIAMI BEACH,33139,305-538-5711,305-538-5711,HOTL,113,Rooms,25.79321,-80.12886,942798.748262994,531480.312081158
-8932388.87529999,2965515.0691,333,0141212760001,MAYFAIR HOTEL & SPA,MAYFAIR CLTG HOLDINGS LLC,3000 FLORIDA AVE,MIAMI,33133,305-441-0000,305-441-0000,HOTL,179,Rooms,25.72867,-80.24101,906030.956313163,507795.352889493
-8920510.25829999,2970636.1853,334,0242032350001,MERCURY HOTEL,MERCURY HOTEL GROUP,100 COLLINS AVENUE,MIAMI BEACH,33139,484-325-4688,484-325-4688,HOTL,22,Rooms,25.77011,-80.1343,941062.497798495,523072.186508991
-8920809.70009999,2973609.6113,335,0232342300001,MERIDIAN HOUSE,R POWER HOLDINGS INC,1816 MERIDIAN AVE,MIAMI BEACH,33139,786-365-3849,954-812-5029,HOTL,28,Rooms,25.79416,-80.13699,940119.937019579,531808.497448407
-8920292.83929999,2971383.819,336,0242030040090,METROPOLE HOTEL,METROPOLE HOTEL APARTMENTS LLC,635 COLLINS AVE,MIAMI BEACH,33139,305-398-7000,308-398-7000,HOTL,42,Rooms,25.77616,-80.13235,941690.810518246,525274.68472866
-8934811.2252,2972353.8408,337,0131320270010,MIAMI AIRPORT MARRIOTT- FULL SERVICE,MARRIOTT HOTEL SERVICE INC,1201 NW 42 AVE,MIAMI,33126,305-649-5000,305-644-5670,HOTL,365,Rooms,25.784,-80.26277,898754.599146746,527865.211371742
-8946460.21689999,2975258.1333,338,3530290010281,MIAMI AIRPORT WEST/DORAL TOWNEPLACE SUITES,M-10505 DORAL HOTEL OWNER LLC,10505 NW 36 ST,MIAMI,33178,305-718-4144,561-207-2700,HOTL,94,Rooms,25.80749,-80.36742,864278.869869996,536223.768145405
-8920284.38699999,2970673.2198,339,0242030120030,MIAMI BCH MARRIOTT AT SO BEACH,KOMAR INV INC,161 OCEAN DR,MIAMI BEACH,33139,5367700,305-536-7700,HOTL,236,Rooms,25.77041,-80.13228,941729.557816077,523185.474012077
-8919331.77609999,2981602.4132,340,0232020030810,MIAMI BEACH BYRON SUITES,DIVINA PROPERTY ASSISTANCE LLC,7320 BYRON AVE,MIAMI BEACH,33141,,,HOTL,16,Rooms,25.85879,-80.12373,944331.937453829,555328.247324824
-8919375.19839999,2974989.5124,341,0232260540001,MIAMI BEACH EDITION HOTEL,EDITION MANAGEMENT LLC,2901 COLLINS AVE,MIAMI BEACH,33140,786-470-3412,786-470-3412,HOTL,299,Rooms,25.80532,-80.12411,944333.122818913,535892.937114157
-8920163.4807,2972040.5356,342,0232340080250,MIAMI BEACH INTERNATIONAL HOSTEL,1051 COLLINS HOTEL LLC,1051 COLLINS AVE,MIAMI BEACH,33139,786-629-9144,305-534-2196,HOTL,31,Rooms,25.78147,-80.13119,942060.499083329,527208.060783155
-8919087.4474,2977293.2147,343,0232230020130,MIAMI BEACH RESORT AND SPA,MIAMI BEACH RESORT OWNER LLC,4833 COLLINS AVE,MIAMI BEACH,33140,,,HOTL,424,Rooms,25.82395,-80.12152,945138.381378997,542669.870082572
-8935224.04,2969903.2469,344,3041080150010,MIAMI EXECUTIVE MOTEL,RESORTS OF DADE INC,4350 SW 8TH ST,MIAMI,33134,305-443-8464,,MOTL,37,Rooms,25.76418,-80.26648,897574.412202664,520653.111294657
-8934811.2252,2972353.8408,345,0131320270010,MIAMI INT'L AIRPORT HOTEL,MCR INVESTORS LLC,MIAMI INT'L AIRPORT,MIAMI,33159,305-871-4100,305-871-4100,HOTL,264,Rooms,25.784,-80.26277,898754.599146746,527865.211371742
-8941406.8121,2988646.7858,346,3220140010410,MIAMI LAKES HOTEL AND GOLF,GRAHAM COMPANIES,7601 MIAMI LAKES DR,MIAMI LAKES,33014,305-556-0100,,HOTL,86,Rooms,25.91572,-80.32202,879010.812190831,575634.810386159
-8942459.4944,2988417.992,347,3220150030020,MIAMI LAKES TOWNEPLACE SUITES,OPERADORA HOTELERA PALMA LLC,8079 NW 154 ST,MIAMI LAKES,33016,305-512-9191,561-207-2700,HOTL,94,Rooms,25.91387,-80.33148,875905.934542328,574946.93544957
-8935439.2292,2976080.5086,348,0431200190480,MIAMI MANSION MOTEL,611 OKEECHOBEE LLC,611 E OKEECHOBEE RD,HIALEAH,33010,305-670-8088,305-670-8088,HOTL,29,Rooms,25.81414,-80.26841,896837.310330413,538809.812185906
-8940540.7237,2960137.7994,349,3050020570010,MIAMI MARRIOTT DADELAND,MDM HOTEL GROUP LTD,9090 S DADELAND BLVD,MIAMI,33156,305-670-1035,305-671-5111,HOTL,303,Rooms,25.68515,-80.31424,882004.72844708,491844.344109155
-8935041.2059,2972236.8422,350,0131320090080,MIAMI PRINCESS HOTEL,MIAMI INTER AIRPORT HTL INC,4251 NW 11 ST,MIAMI,33126,305-441-1862,305-441-1862,MOTL,83,Rooms,25.78306,-80.26485,898076.685476329,527517.436476737
-8927975.9022,2970915.3057,351,0102010801160,MIAMI RIVER INN,RIVER INN SRD LLC,437 SW 2ND ST,MIAMI,33130,305-325-0045,305-325-0045,HOTL,14,Rooms,25.77237,-80.20137,918985.854615912,523753.509293325
-8935895.6525,2975419.6674,352,0531200300010,MIAMI SPRINGS INN,TOTO HOSPITALITY LLC,661 EAST DRIVE,MIAMI SPRINGS,33166,305-381-0743,305-381-0743,MOTL,38,Rooms,25.8088,-80.27251,895499.184069663,536859.918119825
-8935881.2945,2975357.5757,353,,MIAMI SPRINGS INN,TOTO HOSPITALITY LLC,4585 NW 36 ST,MIAMI SPRINGS,33166,305-882-1212,305-381-0743,MOTL,21,Rooms,25.8083,-80.27238,895542.627224244,536677.64190957
-8926952.5677,2971445.6511,354,0101090801020,MIAMI SUN HOTEL,MIAMI SUN HOTEL LLC,226 NE 1ST AVENUE,MIAMI,33132,305-375-0786,305-375-0786,HOTL,90,Rooms,25.77666,-80.19218,922001.642219495,525331.29517974
-8926939.5565,2975417.6353,355,0131250880001,MIDTOWN HOTEL INVESTMENT LLC,"MIDTOWN HOTEL INVESTMENT, LLC",3401 NE 1 AVE,MIAMI,33137,305-789-2733,305-789-2733,HOTL,60,Rooms,25.80878,-80.19206,921968.456590328,537008.364017159
-8918883.956,2980342.9124,356,0232110800001,MIMOSA,EXCLUSIVACATIONS AT MIAMI BEACH LLC,6525 COLLINS AVENUE,MIAMI BEACH,33141,,,HOTL,60,Rooms,25.84861,-80.1197,945679.70838033,551636.247819074
-8921005.8004,2972011.2863,357,0242030140020,MLB 1032 MICHIGAN AVENUE LLC & LIDO 1032 MICHIGAN AVENUE LLC,MLB SOUTH BEACH RENTAL PORTFOLIO MANAGER LLC,1032 MICHIGAN AVE,MIAMI BEACH,33139,,786-802-1905,HOTL,5,Rooms,25.78123,-80.13877,939571.024403494,527105.712890737
-8920518.2427,2972730.2068,358,0232340150090,MLB 1440 PENN AVENUE LLC & LIDO 1440 PENN AVENUE LLC,MLB SOUTH BEACH RENTAL PORTFOLIO MANAGER LLC,1440 PENNSYLVANIA AVE,MIAMI BEACH,33139,,,HOTL,6,Rooms,25.78705,-80.13438,940998.437231079,529228.811662905
-8920664.0492,2972872.435,359,0232340021080,MLB 1534 EUCLID AVENUE LLC & LIDO 1534 EUCLID AVENUE LLC,MLB SOUTH BEACH RENTAL PORTFOLIO MANAGER LLC,1534 EUCLID AVE,MIAMI BEACH,33139,,786-802-1905,HOTL,6,Rooms,25.7882,-80.13569,940564.684817746,529644.124808654
-8920914.5194,2972874.9144,360,0232340021410,"MLB 1536 JEFFERSON AVENUE, LLC & LIDO 1536 JEFFERSON AVENUE, LLC","MLB SOUTH BEACH RENTAL PORTFOLIO MANAGER, LLC",1536 JEFFERSON AVE,MIAMI BEACH,33139,,786-565-3404,HOTL,16,Rooms,25.78822,-80.13794,939824.247650329,529646.560827404
-8921453.6174,2972099.2878,361,0242033340001,MONDRIAN SOUTH BEACH,1100 WEST INVESTMENTS LLC,1100 WEST AVE,MIAMI BEACH,33139,305-374-5700,305-374-5700,HOTL,350,Rooms,25.78194,-80.14278,938245.517868161,527355.810159571
-8920007.3993,2973692.4246,362,0232340190060,MORENO'S CUBA,DECO BEACH INNS LTD,1850 COLLINS AVE,MIAMI BEACH,33139,305-531-5745,,HOTL,104,Rooms,25.79483,-80.12979,942489.810560662,532067.559922405
-8940752.2106,2975373.8055,363,3030260030010,MOTEL 6,GHANDOOR ALI,7330 NW 36 ST,MIAMI,33166,305-592-5440,305-592-5440,MOTL,120,Rooms,25.80843,-80.31614,881146.726882245,536648.146233656
-8946306.2217,2946947.9388,364,3660070180010,MOTEL 6 # 2017,G6 HOSPITALITY PROPERTY LLC,10775 CARIBBEAN BLVD,CUTLER BAY,33189,305-253-9960,972-360-5526,MOTL,154,Rooms,25.57832,-80.36603,865133.571572661,452932.95178774
-8932678.3837,2970041.8663,365,0141040370870,MOTEL 77,MOTEL 77 INC,3021 SW 8 ST,MIAMI,33135,786-351-5609,786-351-5609,MOTL,15,Rooms,25.7653,-80.24361,905098.407981411,521103.253438987
-8926326.9131,2977404.2574,366,0132190160090,MOTEL BIANCO,RIVER PARK HOTEL & SUITES INC,5255 N BISCAYNE BLVD,MIAMI,33137,,305-571-5050,MOTL,32,Rooms,25.82485,-80.18656,923742.997004494,542858.623313993
-8926149.98,2980058.4954,367,0132070400230,MOTEL BLU,VENTURA 77 LLC,7700 BISCAYNE BLVD,MIAMI,33138,,,MOTL,62,Rooms,25.84631,-80.18498,924217.48850958,550662.01584366
-8934883.4412,2975663.4694,368,0431200110130,MOTEL PRESIDENTE,PACIFIC DEVELOPMENT CORP,1395 SE 8 CT,HIALEAH,33010,305-883-7300,305-670-8088,MOTL,50,Rooms,25.81077,-80.26342,898486.690889914,537593.17879241
-8929017.9423,2986401.3314,369,0621250030021,MOTEL SEVEN,EGWAN CORP,13405 NW 7 AVE,NORTH MIAMI,33168,305-681-8721,305-681-8721,MOTL,31,Rooms,25.89758,-80.21073,915631.998134661,569244.622379154
-8932517.2945,2965421.6432,370,,MR C,MAIN HIGHWAY HOTEL LLC,2988 MCFARLANE RD,MIAMI,33133,305-800-6672,305-372-1812,HOTL,100,Rooms,25.72792,-80.24217,905652.74414308,507518.372472323
-8920147.5915,2972580.4721,371,0232340080790,NASSAU SUITES HOTEL,NASSAU INVESTMENT CORP,1414 COLLINS AVE,MIAMI BEACH,33139,305-534-2354,,HOTL,22,Rooms,25.78584,-80.13105,942096.997369912,528795.810232326
-8919941.1521,2973330.3714,372,0232340190540,NATIONAL HOTEL (THE),NEW NATIONAL LLC,1677 COLLINS AVENUE,MIAMI BEACH,33139,305-532-2311,305-423-7201,HOTL,151,Rooms,25.7919,-80.12919,942692.665797997,531004.486261159
-8919846.6446,2973643.0741,373,0232340710001,NAUTILUS,QUADRUM MIAMI BEACH LLC,1825 COLLINS AVE,MIAMI BEACH,33139,,,HOTL,250,Rooms,25.79443,-80.12834,942965.935920745,531925.623526491
-8918904.537,2979925.174,374,0232110640001,NEW CASABLANCA ON THE OCEAN,"CASABLANCA RENTAL SERVICES, INC.",6345 COLLINS AVE,MIAMI BEACH,33141,305-868-0010,305-868-0010,HOTL,150,Rooms,25.84523,-80.11988,945627.123183664,550408.312610909
-8919119.222,2981647.0391,375,0232020031110,NEW HOTEL,NEW HOTEL BBG LLC,7337 HARDING AVE,MIAMI BEACH,33141,,,HOTL,10,Rooms,25.85915,-80.12181,944958.999191828,555463.561358653
-8918945.8941,2978548.1592,376,0232140210001,NEW POINT MIAMI,NEW POINT MIAMI INC,5445 COLLINS AVE SUITE CU#15,MIAMI BEACH,33140,305-397-8952,305-397-8952,HOTL,110,Rooms,25.8341,-80.12025,945532.013137661,546360.880417071
-8926095.5235,2978782.7056,377,0132180240820,NEW YORKER,NEW YORKER HOTEL MIAMI LLC,6500 BISCAYNE BLVD,MIAMI,33138,305-759-5823,305-759-5823,MOTL,51,Rooms,25.83599,-80.18448,924401.643324997,546913.953785993
-8919076.2573,2990481.7722,378,3122140290001,NEWPORT BEACHSIDE HOTEL & RESORT,NEWPORT HOSPITALITY LLC,16701 COLLINS AVE,SUNNY ISLES BEACH,33160,305-749-2123,305-749-2123,MOTL,355,Rooms,25.93055,-80.12142,944912.130847245,581414.979928158
-8932478.2299,2979040.6342,379,3031160000010,NEXX MIAMI,27TH AVE MOTEL LLC,7000 NW 27 AVE,MIAMI,33147,,305-691-7421,MOTL,48,Rooms,25.83808,-80.24181,905537.800147247,547559.04895249
-8958674.38809999,2934514.6489,380,1079070310011,NEXX MOTEL,KROME MANAGEMENT LLC,841 N KROME AVE,HOMESTEAD,33030,305-247-2442,305-247-2442,MOTL,28,Rooms,25.47754,-80.47715,828654.65995058,416143.363293573
-8935280.27439999,2975966.4315,381,0431200190290,NEXX MOTELS,NEXX MOTELS LLC,699 E OKEECHOBEE RD,HIALEAH,33010,786-270-6605,305-885-2999,MOTL,17,Rooms,25.81322,-80.267,897308.937011831,538477.124859154
-8921498.97639999,2972729.6818,382,0232330160200,NOTUS LLC,NOTUS LLC,1330 15 ST,MIAMI BEACH,33139,,,HOTL,8,Rooms,25.78704,-80.14319,938099.373147327,529208.310063489
-8946754.62399999,2973151.9705,383,2530310440001,NUVO SUITES,ONE SP LLC,1750 NW 107 AVE,SWEETWATER,33172,786-472-9095,305-789-2763,HOTL,368,Rooms,25.79046,-80.37006,863438.398781911,530028.372727826
-8927096.34389999,2969303.2653,384,0141390750010,OB SUITES,PARK PLACE AT BRICKELL,1451 S MIAMI AVE,MIAMI,33130,,305-760-6030,HOTL,370,Rooms,25.75932,-80.19348,921615.154803496,519029.217888907
-8920170.50639999,2971730.0945,385,0242032270001,OCEAN DRIVE SUITES,DIVINA PROPERTY ASSISTANCE LLC,850 OCEAN DR,MIAMI BEACH,33139,,,HOTL,5,Rooms,25.77896,-80.13125,942045.749440912,526295.185968488
-8920293.20659999,2971117.8798,386,0242030030620,OCEAN FIVE HOTEL,OCEAN FIVE HOTEL LLC,436 OCEAN DR (436-444),MIAMI BEACH,33139,305-532-7093,,HOTL,62,Rooms,25.774,-80.13235,941694.874158412,524492.747972324
-8918984.12699999,2991281.7595,387,3122110650001,OCEAN POINT RESORT & CLUB,BOYKIN ENTERPRISES LTD LLC,17375 COLLINS AVE,GOLDEN BEACH,33160,5282512,,HOTL,166,Rooms,25.93701,-80.1206,945168.373444997,583765.872536071
-8920209.09529999,2972164.6867,388,0232340081110,OCEAN REEF HOTEL,1130 COLLINS LLC,1130 COLLINS AVE,MIAMI BEACH,33139,305-539-1970,305-864-3777,HOTL,36,Rooms,25.78247,-80.13161,941923.248045497,527572.187023409
-8919267.63579999,2976023.5789,389,0232230240001,OCEAN SPRAY HOTEL,VISTAS INTERNATIONAL HOSPITALITY LLC,4130 COLLINS AVE,MIAMI BEACH,33140,305-535-5304,305-535-5304,HOTL,54,Rooms,25.81368,-80.12315,944630.778391577,538934.611148909
-8918939.29149999,2981777.1591,390,0232020030030,OCEAN SURF,7436 OCEAN TERRACE LLC,7430 OCEAN TER,MIAMI BEACH,33141,305-324-4700,305-324-4700,HOTL,38,Rooms,25.8602,-80.12019,945487.996821497,555849.436571158
-8918940.04619999,2981794.0535,391,0232020030020,OCEAN SURF,7436 OCEAN TERRACE LLC,7436 OCEAN TERRACE,MIAMI BEACH,33141,305-324-4700,305-324-4700,HOTL,49,Rooms,25.86034,-80.1202,945485.435146827,555899.060487658
-8919025.49219999,2979817.069,392,0232110080010,OCEANSIDE HOTEL,HARDING HOTEL LLC,6084 COLLINS AVE,MIAMI BEACH,33140,305-772-4672,305-772-4672,HOTL,67,Rooms,25.84436,-80.12097,945271.874878414,550088.247634239
-8920141.721,2972621.1643,393,0232340080770,ODYSSEY OF SOUTH BEACH,ODYSSEY OF SOUTH BEACH LLC,1420 COLLINS AVE,MIAMI BEACH,33139,305-673-0800,305-673-0800,HOTL,27,Rooms,25.78617,-80.13099,942113.561313163,528915.559336655
-8920610.2373,2971040.0088,394,0242030092840,ORANGE,SUPERSTEIN BERNARD,350 EUCLID AVE,MIAMI BEACH,33139,,,HOTL,12,Rooms,25.77337,-80.1352,940759.122420996,524257.62278641
-8940215.5684,2969708.9657,395,3040110110190,ORANGE GROVE MOTEL,ESTEVEZ GONZALO & LAGO BELKIS,7160 SW 8 ST,MIAMI,33144,305-649-1212,,MOTL,12,Rooms,25.76261,-80.31132,882819.812118746,520002.218239486
-8920161.0049,2972485.5569,396,0232340080900,ORCHID HOUSE,MB AMERICA LLC,1350  COLLINS AVENUE,MIAMI BEACH,33139,786-606-7623,786-606-7623,HOTL,4,Rooms,25.78507,-80.13117,942059.187406164,528516.497470737
-8934928.6166,2975678.2854,397,0431200240130,PALACIO INN,SUNVIRA INC,845 E OCKEECHOBEE RD,HIALEAH,33010,732-600-6360,732-600-9253,MOTL,33,Rooms,25.81089,-80.26383,898352.936564244,537635.980544075
-8936901.6457,2978434.8745,398,0431180031810,PALM AVE MOTEL,HORNS MANAGEMENT LLC,8 E 13 ST,MIAMI,33010,305-634-6865,305-634-6865,MOTL,23,Rooms,25.83318,-80.28155,892477.644180994,545705.489339404
-8927411.7934,2979602.8631,399,0131120690100,PALM PLAZA MOTEL,INNOVATIVE PROPERTY MGMT GRP,7331 N MIAMI AVE,MIAMI,33150,305-751-6232,,MOTL,16,Rooms,25.84262,-80.1963,920497.610450663,549300.165220909
-8919367.3077,2975086.0254,400,0232260011190,PALMS SOUTH BEACH HOTEL,PALMS SOUTH BEACH INC,3025 COLLINS AVE,MIAMI BEACH,33140,305-534-0505,305-534-0505,HOTL,246,Rooms,25.8061,-80.12404,944354.556174997,536176.793501824
-8920122.9138,2972838.72939999,401,0232340191050,PARISIAN APT HTL,OCEAN BEACH PROP INC,1510 COLLINS AVE,MIAMI BEACH,33139,305-673-4112,,HOTL,44,Rooms,25.78792,-80.13082,942164.934898078,529555.560025156
-8958745.4223,2932824.6662,402,1078130500070,PARK MOTEL,PARK MOTEL LLC,600   S KROME AVE,HOMESTEAD,33030,305-248-7033,305-248-7033,MOTL,21,Rooms,25.46383,-80.47778,828463.673783995,411161.310921744
-8919019.0539,2980278.5491,403,0232110071930,PARK ROYAL MIAMI BEACH,VACATION SERVICES EAST INC,6495 INDIAN CREEK DR,MIAMI BEACH,33141,786-864-2585,786-864-2585,HOTL,42,Rooms,25.84809,-80.12091,945281.825973995,551444.445709243
-8920181.2033,2974092.5942,404,0232270400001,PARK VILLAS TH2 WEST,SOBE BEACH PROPERTIES LLC,2135 WASHINGTON COURT #TH2 WEST,MIAMI,33139,810-499-3333,810-499-3333,HOTL,1,Rooms,25.79807,-80.13135,941968.312259831,533240.560529158
-8920181.2033,2974092.5942,405,0232270400001,PARK VILLAS TH5 WEST,MARTIN MARION,2135 WASHINGTON CT #TH5 W,MIAMI BEACH,33139,508-878-5690,305-447-0123,HOTL,1,Rooms,25.79807,-80.13135,941968.312259831,533240.560529158
-8937659.4294,2975432.8737,406,0531190134700,PARKWAY INN,AQUINO DAVID,777 CURTISS PARKWAY,MIAMI SPRINGS,33166,,,MOTL,89,Rooms,25.80891,-80.28836,890286.26700208,536870.23338791
-8920180.32569999,2971680.417,407,0242030040320,PELICAN HOTEL,PELICAN DRIVE INC,826 OCEAN DR,MIAMI BEACH,33139,305-673-3373,305-673-3373,HOTL,28,Rooms,25.77856,-80.13134,942017.684536412,526148.934620574
-8920023.87179999,2972586.9882,408,0232341850001,PENGUIN HOTEL DEVELOPMENT LLC,PENGUIN HOTEL DEVELOPMENT LLC,1418 OCEAN DR,MIAMI BEACH,33139,,305-534-9334,HOTL,44,Rooms,25.78589,-80.12995,942462.593423497,528817.382039577
-8920092.5223,2973628.4635,409,0232340190051,PESTANA SOUTH BEACH HOTEL,PESTANA MIAMI LLC,1817 JAMES AVE,MIAMI BEACH,33139,305-341-2401,305-341-2401,HOTL,99,Rooms,25.79431,-80.13055,942239.442623079,531877.866076075
-8920098.5073,2973931.2945,410,0232260010200,PLYMOUTH HOTEL,PLYMOUTH HOTEL LLC,336 21 ST,MIAMI BEACH,33139,305-531-3464,305-531-3464,HOTL,89,Rooms,25.79676,-80.13061,942215.873116411,532767.999138325
-8934340.02959999,2968916.1616,411,0341080070010,PONCE DE LEON HOTEL,STEFA PROPERTIES LLC,1721 PONCE DE LEON BLVD,CORAL GABLES,33134,305-444-9934,,HOTL,31,Rooms,25.75619,-80.25854,900204.347231496,517765.148566656
-8920076.35609999,2972600.3868,412,0232340080690,PRESIDENT HOTEL,PRESIDENT HOTEL INC,1423 COLLINS AVE,MIAMI BEACH,33139,5382882,305-534-9334,HOTL,64,Rooms,25.786,-80.13041,942307.186582077,528855.749088824
-8920395.56389999,2970595.4029,413,0242030030230,PRIME HOTEL,BROWNS HOTEL LLC,100 OCEAN DR,MIAMI BEACH,33139,305-532-0553,305-532-0553,HOTL,14,Rooms,25.76978,-80.13327,941402.374743413,522954.499736488
-8957249.5521,2934863.5744,414,1079070260072,PRINCE OF HOMESTEAD INN,PRINCE OF HOMESTEAD INN LLC,1020 N HOMESTEAD BLVD,HOMESTEAD,33030,305-248-2121,,MOTL,50,Rooms,25.48037,-80.46435,832873.063259162,417188.532463074
-8920272.8241,2971837.995,415,0232340081360,PRINCESS ANN HOTEL,DHB COLLINS HOSPITALITY LLC,920 COLLINS AVE,MIAMI BEACH,33139,305-534-2196,305-534-2196,HOTL,45,Rooms,25.77983,-80.13217,941741.18476133,526610.436322242
-8943197.49099999,2976899.4705,416,3530210180010,"PROVIDENT AT THE BLUE, DORAL - MIAMI",PROVIDENT DORAL RESORTS LLC,5300 NW 87 AVE,DORAL,33178,305-597-8600,727-451-6127,HOTL,200,Rooms,25.82077,-80.33811,873897.351617247,541095.436223574
-8938063.87029999,2972112.5344,417,3030510510080,PULLMAN MIAMI AIRPORT,LR MIAMI AIRPORT HOTEL LLC,5800 BLUE LAGOON DR,MIAMI,33126,305-264-4888,,HOTL,281,Rooms,25.78205,-80.29199,889143.464825746,527103.022279322
-8958274.3405,2930366.2223,418,1679300010300,QUALITY INN FLORIDA CITY-HOMESTEAD,JAI ASHIRWAAD LLC,333 SE 1ST AVE,FLORIDA CITY,33034,305-248-4009,,MOTL,123,Rooms,25.44389,-80.47354,829888.515094411,403919.537675656
-8941479.9254,2975673.0148,419,3530270320020,QUALITY INN MIAMI AIRPORT,DORAL HOSPITALITY LLC,3959 NW 79 AVE,MIAMI,33166,305-599-5200,305-599-5200,HOTL,129,Rooms,25.81085,-80.32269,878991.499565411,537516.498827659
-8943130.4712,2953935.2487,420,3350210000431,QUALITY INN SOUTH,QUALITY INN SOUTH INC,14501 S DIXIE HWY,MIAMI,33176,305-251-2000,,MOTL,100,Rooms,25.63493,-80.33751,874434.44732783,473551.36560332
-8940389.7941,2980198.5883,421,0430110021381,RAINBOW INN MOTEL,GHALLOUB INC,2801 W OKEECHOBEE RD,HIALEAH,33010,305-884-8140,,MOTL,37,Rooms,25.84744,-80.31289,882143.732106078,550833.222194158
-8931670.7238,2969969.3277,422,0141100140380,RAINBOW MOTEL,HAGA BUSINESS INC,835 SW 24 AVE,MIAMI,33135,305-553-8703,,MOTL,13,Rooms,25.76471,-80.23456,908078.812453661,520907.15573407
-8936463.57669999,2975335.3052,423,,RAMADA MIAMI AIRPORT,AQ GROUP LLC,5001 NW 36 ST,MIAMI SPRINGS,33166,305-883-4700,305-883-4700,MOTL,116,Rooms,25.80812,-80.27762,893822.088014413,536602.699474156
-8933406.70589999,2970908.1109,424,0141040250180,RAMONA MOTEL,WARRIORS AIR INC,3301 W FLAGLER ST,MIAMI,33135,305-649-1211,,MOTL,23,Rooms,25.77231,-80.25016,902930.619337995,523638.017070241
-8934894.11779999,2975124.8557,425,0531290000020,RED ROOF INN #10255,RRI OPCO LLC,3401 NW LE JEUNE RD,MIAMI,33142,305-871-4221,614-744-2693,HOTL,200,Rooms,25.80641,-80.26352,898463.997693829,536009.81188041
-8919440.39319999,2975098.1074,426,0232260011200,RED SOUTH BEACH HOTEL,3010 COLLINS LLC,3010 COLLINS AVE,MIAMI BEACH,33140,305-538-1471,305-467-0055,HOTL,76,Rooms,25.8062,-80.12469,944138.311528746,536210.871517658
-8920036.79899999,2973543.0225,427,0232340190360,REDBURY SOUTH BEACH,RED 18 LLC,1776 COLLINS AVE,MIAMI BEACH,33139,305-604-1776,786-216-7780,HOTL,69,Rooms,25.79362,-80.13005,942405.812040996,531627.774712741
-8921126.76169999,2994084.5851,428,2822030600010,RESIDENCE INN AT AVENTURA MALL,N SITE LAMITED PARTNERSHIP,19900 W COUNTRY CLUB DR,AVENTURAI,33180,,786-528-1001,HOTL,191,Rooms,25.95965,-80.13985,938788.610613994,591953.007080406
-8932142.95429999,2965779.8857,429,0141210250310,RESIDENCE INN BY MARRIOTT,"HHLP COCONUT GROVE LESSEE, LLC",2835 TIGERTAIL AVE,MIAMI,33133,,,MOTL,140,Rooms,25.73082,-80.2388,906753.75670483,508578.450076573
-8919180.42019999,2984226.0102,430,1422350060420,RESIDENCE INN BY MARRIOTT,HDP-TLD PARTNERS LLC,9200 COLLINS AVE,SURFSIDE,33154,305-514-3101,,HOTL,175,Rooms,25.88,-80.12236,944727.560678329,563039.249947406
-8919145.41379999,2991635.23,431,3122110040380,RESIDENCE INN BY MARRIOTT (SUNNY ISLES),17700 COLLINS AVENUE OWNER LLC,17700  COLLINS AVENUE,SUNNY ISLES,33160,305-789-2763,,HOTL,194,Rooms,25.93986,-80.12204,944685.248755079,584800.56206774
-8934811.2252,2972353.8408,432,0131320270010,RESIDENCE INN BY MARRIOTT MIAMI AIRPORT SOUTH,MARRIOTT HOTEL SERVICES INC,1201 NW LEJEUNE RD,MIAMI,33126,305-481-1489,305-481-1489,HOTL,163,Rooms,25.784,-80.26277,898754.599146746,527865.211371742
-8943934.6474,2975051.6659,433,3530280180155,RESIDENCE INN MIAMI AIRPORT WEST DORAL,SUNSHINE HOSPITALITY LLC,3450 NW 91 AVE,MIAMI,33172,786-814-8427,786-814-8427,HOTL,129,Rooms,25.80582,-80.34473,871746.026851662,535653.400191657
-8921387.1835,2973367.8705,434,0232330170010,RESIDENCE INN MIAMI SOUTH BEACH,RESIDENCE INN BY MARRIOTT LLC,1231 17 ST,MIAMI BEACH,33139,505-610-2868,505-610-2868,HOTL,116,Rooms,25.7922,-80.14218,938417.613652579,531086.670479991
-8919866.5512,2973529.2529,435,0232340190510,RICHMOND HOTEL,WALLACE CORP,1757 COLLINS AVE,MIAMI BEACH,33139,,,HOTL,105,Rooms,25.79351,-80.12852,942909.309721664,531590.622556075
-8919279.1308,2986588.2526,436,1222260440001,RITZ CARLTON BAL HARBOUR,LK HOTEL LLC,10295 COLLINS AVE,BAL HARBOUR,33154,305-455-5400,305-455-5400,HOTL,124,Rooms,25.89909,-80.12325,944389.630251829,569976.303986654
-8932054.1423,2965780.1296,437,0141211990010,RITZ CARLTON HOTEL COCONUT GROVE,HHLP COCONUT GROVE RC LESSEE LLC,3300 SW 27TH AVE,COCONUT GROVE,33133,305-644-4680,305-644-4680,HOTL,115,Rooms,25.73082,-80.238,907016.402833078,508580.683339827
-8923143.445,2960965.9606,438,2452050610001,RITZ CARLTON KEY BISCAYNE,RITZ CARLTON HOTEL CO,455 GRAND BAY DR,KEY BISCAYNE,33149,,,HOTL,302,Rooms,25.69185,-80.15796,933459.124553829,494578.531226076
-8919349.9797,2975164.9792,439,0232260011320,RIV FLORIDA BEACH HOTEL,RIVTEL BEACH INC,3101 COLLINS AVE,MIAMI BEACH,33140,305-673-5333,305-673-5333,HOTL,284,Rooms,25.80674,-80.12388,944404.225038912,536409.21856191
-8928034.9665,2970900.6758,440,0102010801150,RIVER INN MIAMI,RIVER INN SRD LLC,445 SW 2ND ST,MIAMI,33130,305-325-0045,305-325-0045,HOTL,6,Rooms,25.77225,-80.2019,918811.499649663,523709.434906408
-8958596.7314,2933108.1953,441,1079180090080,RIVER PARK HOTEL AND SUITES,RIVER PARK INN & SUITES,100 SE 4 ST,MIAMI,33131,305-374-5100,,HOTL,149,Rooms,25.46613,-80.47644,828901.089247745,411998.781687737
-8926334.2091,2980120.3477,442,0132070400180,RIVERSIDE MOTEL,SHANIK INC,498 NE 78 ST,MIAMI,33138,786-247-3842,,MOTL,14,Rooms,25.84681,-80.18663,923672.052920662,550840.39573624
-8920066.0483,2973873.5691,443,0232260010180,RIVIERA HOTEL APARTMENTS,PHILLARD APARTMENTS HOTEL LLC,2000 LIBERTY AVE,MIAMI BEACH,33139,305-531-5831,,HOTL,54,Rooms,25.79629,-80.13031,942312.935914412,532598.93550007
-8920086.7361,2973817.5793,444,0232260010220,RIVIERA LOFTS HOTEL,RIVIERA LOFTS HOTEL LLC,318 20 ST,MIAMI BEACH,33139,305-538-7444,305-538-7444,HOTL,97,Rooms,25.79584,-80.1305,942252.874026664,532433.935830072
-8920139.306,2972638.0064,445,0232340080760,RIVIERE APART HOTEL,HORIZONTE CORPORATION,1424 COLLINS AVE,MIAMI BEACH,33139,305-531-3488,305-538-4361,HOTL,19,Rooms,25.7863,-80.13098,942120.373635497,528965.121901572
-8927977.7403,2970961.1952,446,0102010801020,ROAM MIAMI,ROAM MIAMI LLC,118 SW SOUTH RIVER DR,MIAMI,33130,305-325-0045,305-766-3462,HOTL,40,Rooms,25.77274,-80.20139,918979.602987997,523888.404692821
-8920093.769,2972476.1832,447,0232340080570,ROCK HOSTEL,1351 COLLINS RESTAURANT LLC,1351 COLLINS AVE.,MIAMI BEACH,33139,786-431-9931,786-431-9931,HOTL,24,Rooms,25.78499,-80.13056,942258.123688079,528490.250147909
-8928160.7388,2990128.1861,448,3021130072630,RODE WAY INN,O J A DEVELOPMENT COMPANY LTD,148 NW 167 STREET,MIAMI,33169,305-949-1441,,MOTL,165,Rooms,25.92769,-80.20303,918096.997141663,580205.18444749
-8937960.3458,2962696.3596,449,0940250110240,RODEWAY INN SOUTH MIAMI - CORAL GABLES,RIVER PARK HOTELS & SUITES,5959 SW 71 ST,MIAMI,33143,305-667-6664,305-667-6664,HOTL,118,Rooms,25.70586,-80.29106,889598.327761162,499412.21808099
-8935146.6641,2969945.1866,450,0141050240101,ROSSEL INN,ROSSEL INN LLC,4315 SW 8 ST,MIAMI,33134,305-476-5244,954-462-9175,MOTL,8,Rooms,25.76452,-80.26579,897802.489830494,520777.70717407
-8926117.3702,2979725.1051,451,0132070401541,ROYAL BUDGET INN,SAAJAMAR INC,7422 BISCAYNE BLVD,MIAMI,33138,305-754-6657,305-754-7901,MOTL,18,Rooms,25.84361,-80.18467,924319.913173497,549682.93742124
-8920439.5985,2971633.221,452,0242032700001,ROYAL HOTEL,ROYAL SOUTH BEACH CORP,763 PENNSYLVANIA AVE,MIAMI BEACH,33139,305-673-9009,,HOTL,42,Rooms,25.77817,-80.13367,941252.124387745,526005.122572243
-8935960.1384,2975429.8127,453,0531190133880,RUNWAY INN MIAMI AIRPORT,RUNWAY PARTNERS LLC,656 EAST DR,MIAMI SPRINGS,33166,305-888-6411,305-888-6411,HOTL,103,Rooms,25.80888,-80.27309,895308.43609158,536888.685778826
-8919931.2408,2973296.464,454,0232340190530,SAGAMORE MIAMI BEACH,EBJ/INSITE SAGAMORE LLC,1671 COLLINS AVE,MIAMI BEACH,33139,305-535-8088,954-640-7999,HOTL,93,Rooms,25.79163,-80.1291,942722.622102913,530904.997286908
-8919502.2694,2975117.0626,455,0232260011270,SAMANTHA SOUTH BEACH HOTEL,3031 SJ REALTY LLC,235 30TH STREET,MIAMI BEACH,33140,786-431-9931,,HOTL,34,Rooms,25.80635,-80.12525,943955.06222333,536265.374361403
-8920061.0799,2973335.9564,456,0232340190630,SAN JUAN HOTEL,SAN JUAN HOTEL LLC,1680 COLLINS AVE,MIAMI BEACH,33139,305-538-7531,305-538-7531,HOTL,77,Rooms,25.79195,-80.13027,942338.061848413,531018.562348492
-8931664.3152,2970013.0507,457,0141100140370,SAN JUAN MOTEL,HAGA BUSINESS INC,2390 SW 8 ST,MIAMI,33135,305-642-2433,,MOTL,10,Rooms,25.76507,-80.2345,908097.013204664,521035.831657827
-8926051.6119,2979202.5277,458,0132180070610,SATURN MOTEL,SHREE JEE HOSPITALITY INC,6995 BISCAYNE BLVD,MIAMI,33138,305-757-8891,,MOTL,16,Rooms,25.83939,-80.18408,924523.735272411,548148.491671242
-8920221.1346,2971082.7756,459,0242030120200,SAVOY HOTEL,SAVOY HOTEL PARTNERS LLC,425- 455 OCEAN DRIVE,MIAMI,33139,305-532-0200,305-532-0200,HOTL,75,Rooms,25.77372,-80.13171,941908.624387078,524390.935183823
-8920316.3617,2971784.3243,460,,SDMH INTERNATIONAL LLC,SDMH INTERNATIONAL LLC,236 9 ST,MIAMI BEACH,33139,786-356-4153,786-356-4153,HOTL,28,Rooms,25.7794,-80.13256,941613.517693829,526451.789001741
-8919254.5305,2985587.7837,461,1222260010070,SEA VIEW HOTEL (THE),SEA VIEW HOTEL INC,9909 COLLINS AVE,MIAMI BEACH,33154,,305-866-4441,HOTL,135,Rooms,25.891,-80.12302,944481.92632708,567038.082828991
-8919795.3051,2973813.3237,462,0232260010040,SEAGULL HOTEL MIAMI BEACH,BERNARD CHARLES LTD,100 21 ST,MIAMI BEACH,33139,305-538-6631,305-538-6631,HOTL,172,Rooms,25.79581,-80.12788,943114.372303661,532427.123179659
-8919195.4972,2981601.3713,463,0232020030930,SEASIDE APARTMENT HOTEL,HARDING HOTEL LLC,7310 HARDING AVE,MIAMI BEACH,33141,305-772-4672,305-772-4672,HOTL,48,Rooms,25.85878,-80.12249,944734.560008161,555327.873637907
-8920306.3974,2971048.2491,464,0242030030660,SENSE BEACH HOUSE,OCEAN UNIT LLC,400 OCEAN DR,MIAMI BEACH,33139,305-538-5529,305-538-5529,HOTL,18,Rooms,25.77344,-80.13247,941657.225283578,524287.756584406
-8919893.8519,2973824.3508,465,0232341530001,SETAI HOTEL,SETAI HOTEL ACQUISITION LLC,2001 COLLINS AVE,MIAMI BEACH,33139,305-520-6111,305-322-1005,HOTL,88,Rooms,25.7959,-80.12877,942822.871902414,532457.611635737
-8926091.5151,2978518.1298,466,0132180240890,SHALIMAR MOTEL,JAI SIYARAM LLC,6200 BISCAYNE BLVD,MIAMI,33138,,,MOTL,49,Rooms,25.83385,-80.18444,924418.310286414,546136.499304153
-8919874.631,2973612.3482,467,0232340830001,SHELBORNE SOUTH BEACH,SHELBORNE OPERATING ASSOCIATES LLC,1801 COLLINS AVE,MIAMI BEACH,33139,,,HOTL,210,Rooms,25.79418,-80.12859,942883.810100745,531834.748380154
-8920291.7451,2971738.1042,468,0242030040450,SHELLEY HOTEL,HOTEL SHELLEY LLC,844 COLLINS AVE,MIAMI BEACH,33139,305-531-3341,,HOTL,50,Rooms,25.77902,-80.13234,941687.18486933,526316.373590156
-8920163.3347,2972468.9063,469,0232340080910,SHEPLEY HOTEL,BEACHCOMBER INVESTMENTS CORP,1340 COLLINS AVE,MIAMI BEACH,33139,305-531-3755,305-531-3755,HOTL,29,Rooms,25.78493,-80.13119,942052.623114828,528467.499209158
-8934442.712,2973658.3668,470,3031290170010,SHERATON MIAMI AIRPORT HOTEL & EXECUTIVE MEETING CENTER,3900 NW LLC,3900 NW 21 ST,MIAMI,33142,305-871-3800,,HOTL,405,Rooms,25.79455,-80.25946,899822.374570247,531706.436956987
-8918901.8467,2980440.2353,471,0232110070400,SHERRY FRONTAC,SHERRY FRONTENAC RESORT INC,6565 COLLINS AVE,MIAMI BEACH,33141,305-866-1637,305-866-1637,HOTL,268,Rooms,25.84939,-80.11986,945624.934867829,551921.872903988
-8919870.5471,2973696.319,472,0232260010020,SHORE CLUB HOTEL,SHORE CLUB PROPERTY OWNER LLC,1901 COLLINS AVE,MIAMI BEACH,33139,305-695-3100,305-695-3269,HOTL,309,Rooms,25.79486,-80.12856,942894.247743912,532081.684237987
-8923190.9652,2961470.9287,473,,SILVER SANDS OCEANFRONT MOTEL,RED DRAGON'S SANDS LTD,301 OCEAN DR,KEY BISCAYNE,33149,305-361-5441,305-361-5441,MOTL,56,Rooms,25.69594,-80.15839,933309.079250246,496063.363230154
-8926082.9936,2978431.987,474,0132180241050,SINBAD MOTEL,CHIRAV CORPORATION,6150 BISCAYNE BLVD,MIAMI,33137,305-751-3110,305-751-3110,HOTL,28,Rooms,25.83316,-80.18437,924445.060560994,545883.498497821
-8919110.2574,2979758.002,475,0232110870001,SIXTY SIXTY RESORT,CONDOMINIUM HOTEL MANAGEMENT CORP INC,6060 INDIAN CREEK DR,MIAMI BEACH,33140,305-868-0110,305-868-0010,HOTL,82,Rooms,25.84388,-80.12173,945022.586334996,549913.000281326
-8919024.8925,2979783.269,476,0232110080020,SIXTY80 DESIGN HOTEL,6080 COLLINS MANAGER LLC,6080 COLLINS AVE,MIAMI BEACH,33140,786-475-9125,786-888-1702,HOTL,70,Rooms,25.84408,-80.12096,945274.31089716,549988.93582499
-8937084.7173,2975413.1927,477,0531190250020,SLEEP INN,"FAIRWAYS, INC.",105 FAIRWAY DR,MIAMI SPGS,33166,871-7553,301-592-3840,HOTL,117,Rooms,25.80875,-80.2832,891985.096937746,536821.602251574
-8927120.4518,2969545.4801,478,0102090501015,SLS BRICKELL HOTEL,BRICKELL MIAMI LLC,1300 S MIAMI AVE,MIAMI,33130,305-239-1300,305-239-1300,HOTL,124,Rooms,25.76128,-80.19368,921539.51847183,519741.035690993
-8927064.7014,2970147.6749,479,0102050501040,SLS LUX BRICKELL,SBE HOTEL MANAGEMENT LLC,801 S MIAMI AVE,MIAMI,33130,305-789-2733,305-239-1304,HOTL,84,Rooms,25.76616,-80.19318,921693.513570663,521512.801176324
-8919883.6817,2973419.4323,480,0232340190440,SLS SOUTH BEACH,1701 MIAMI (OPERATOR) LLC,1701 COLLINS AVE,MIAMI BEACH,33139,305-674-1701,305-498-0174,HOTL,140,Rooms,25.79262,-80.12868,942860.81080291,531267.434882239
-8920551.97609999,2971029.8568,481,0242030130020,SO FL VILLAS & GARDEN,BRAGASSA DONNA,350 WASHINGTON AVE,MIAMI BEACH,33139,305-582-0147,305-582-0147,HOTL,5,Rooms,25.77329,-80.13468,940931.560068246,524228.903683737
-8920888.47899999,2971983.8486,482,0242030096880,SOBE YOU HOTEL,1018 JEFFERSON LLC,1018 JEFFERSON AVE,MIAMI BEACH,33139,305-534-5247,,HOTL,9,Rooms,25.78101,-80.1377,939918.374430578,527027.312128909
-8919200.99019999,2982551.1411,483,0232020100270,SOGNO DI MARE INC,SOGNO DI MARE INC,8118 HARDING AVE,MIAMI BEACH,33141,786-356-4153,786-356-4153,HOTL,22,Rooms,25.86646,-80.12254,944699.689014912,558118.30637724
-8919144.8501,2976305.5874,484,0232260012140,SOHO HOUSE,SOHO HOUSE BEACH HOUSE LLC,4385 COLLINS AVE,MIAMI BEACH,33140,786-507-7900,786-507-7900,HOTL,50,Rooms,25.81596,-80.12204,944988.124461662,539765.936585993
-8920328.6542,2972502.4495,485,0232341830001,SOLDATINI RENTAL,SOBE VILLAGE CONDOMINIUM ASSOC,1355 57 DREXEL AVE 440 14 ST,MIAMI BEACH,33139,305-296-3432,786-536-2106,HOTL,18,Rooms,25.7852,-80.13267,941563.27566833,528562.895343825
-8919004.72039999,2991229.3426,486,3122110740001,SOLE ON THE OCEAN,17315 COLLINS AVENUE LLC,17315 COLLINS AVE,NORTH MIAMI BEACH,33160,786-923-9300,786-923-9300,HOTL,249,Rooms,25.93658,-80.12078,945108.608472664,583611.55230666
-8919988.18869999,2973890.3575,487,0232260010080,SOUTH BEACH HOTEL,COLLINS PARK HOTEL LLC,236 21 ST,MIAMI BEACH,33139,,,HOTL,51,Rooms,25.79643,-80.12961,942542.747134577,532649.80974216
-8946543.81469999,2985045.7411,488,2220290010486,SOUTH RIVER SUITES,SOUTH RIVER SUITES LTD,12484 NW SOUTH RIVER DR,MEDLEY,33178,305-455-6961,305-455-6961,HOTL,77,Rooms,25.88662,-80.36818,863893.529433329,564982.48982732
-8919869.53119999,2973510.1182,489,0232340190500,SOUTH SEAS HOTEL,SYNERGETIC REAL ESTATE OF FLORIDA LLC,1751 COLLINS AVE,MIAMI BEACH,33139,305-538-1411,305-538-1411,HOTL,117,Rooms,25.79336,-80.12855,942900.87338683,531534.311973155
-8946517.59629999,2975648.6263,490,3530290870010,SPRINGHILL HOTEL,B & JCM HOSPITALITY GROUP LLC,3895 NW 107 AVE,DORAL,33178,305-593-6366,305-593-6366,HOTL,112,Rooms,25.81065,-80.36793,864103.776716247,537370.740588993
-8928989.81299999,2972715.1907,491,0131350950010,SPRINGHILL SUITES BY MARRIOTT,SPRINGHILL SMC LLC,1311 NW 10TH AVE,MIAMI,33136,305-575-5300,305-575-5300,HOTL,199,Rooms,25.78693,-80.21048,915956.654965661,529027.303535737
-8939684.38509999,2971476.4121,492,3040020490020,SPRINGHILL SUITES MIAMI AIRPORT SOUTH,MONARCH MIAMI LP,6700 NW 7 ST,MIAMI,33126,305-265-0144,,HOTL,150,Rooms,25.77691,-80.30655,884362.939609911,525207.292474993
-8919172.57559999,2985328.4522,493,1222260490001,ST REGIS RESORT AND RESIDENCES - BAL HARBOUR,SELDAR MIAMI HOLDING LLC,9703 COLLINS AVE,BAL HARBOUR,33154,305-993-3300,305-993-3300,HOTL,216,Rooms,25.88891,-80.1223,944729.071830161,566277.92686899
-8932837.12669999,2995507.3077,494,3411340070020,STADIUM HOTEL,GERALD D ROSS,21485 NW 27 AVE,MIAMI,33056,,,HOTL,220,Rooms,25.97114,-80.24504,904198.945541497,595916.205190741
-8922190.33899999,2973388.0819,495,0232330040090,STANDARD MIAMI,FERRADO LIDO LLC,40 ISLAND AVE,MIAMI BEACH,33139,305-673-1717,,HOTL,105,Rooms,25.79237,-80.1494,936043.186642911,531130.687124237
-8938811.99089999,2978885.2162,496,0430130070040,STAR MOTEL,STAR MOTEL INC,1651 W OKEECHOBEE RD,HIALEAH,33010,305-888-9182,305-888-9182,MOTL,41,Rooms,25.83682,-80.29871,886825.870379578,546998.441805989
-8920275.99989999,2971821.1161,497,0232340081370,STARDUST MIAMI,BOLAGO ENTERPRISES OF MIAMI CORP,910 COLLINS AVE,MIAMI BEACH,33139,305-695-4458,786-444-6035,HOTL,20,Rooms,25.77969,-80.1322,941732.123427745,526560.747773319
-8935649.46439999,2969926.607,498,0141050470340,STARDUST MOTEL,ZENFER ENTERPRISES INC,4525 SW 8 STREET,MIAMI,33134,305-476-9292,305-262-4125,MOTL,41,Rooms,25.76437,-80.27031,896316.250020828,520714.819504574
-8923207.25269999,2960461.4793,499,2452050550001,STARLITE APARTMENTS,STARLITE PARTNERSHIP LTD,750 OCEAN DR,MIAMI BEACH,33139,,,HOTL,61,Rooms,25.68777,-80.15853,933279.808311414,493092.983016074
-8958956.98129999,2932665.284,500,,STARLITE MOTEL,OPTIMUM USA BRICKELL 2 LLC,135 SW 8 ST,MIAMI,33130,305-857-9416,305-857-9416,MOTL,60,Rooms,25.46254,-80.47968,827838.476871662,410689.050383322
-8938587.17549999,2969827.1231,501,0140010057370,STARLITE WEST MOTEL,RAFER ENTERPRISES,6241 SW 8 ST,MIAMI,33144,305-262-4125,305-262-4125,MOTL,28,Rooms,25.76356,-80.29669,887632.39829408,520375.077729993
-8927676.27179999,2969348.2134,502,0141391300010,STAY ALFRED,STAY ALFRED INC,1700 SW 2 AVE,MIAMI,33129,305-859-7745,509-598-4881,HOTL,52,Rooms,25.75969,-80.19868,919899.686449662,519150.935821325
-8927644.89169999,2969305.197,503,0141390080010,STAY ALFRED,STAY ALFRED INC,1701 SW 2 AVE,MIAMI,33129,305-859-7745,509-598-4881,HOTL,25,Rooms,25.75934,-80.19841,919993.236459412,519025.00595507
-8933960.75409999,2974213.2946,504,,STAYBRIDGE MIAMI INTERNATIONAL AIRPORT,GRAPELAND HOSPITALITY DEVELOPMENT LLC,3651 NW 25 ST,MIAMI,33142,305-446-0123,305-446-0123,HOTL,153,Rooms,25.79904,-80.25513,901237.709666077,533345.778494574
-8943095.51599999,2974936.9148,505,,STAYBRIDGE SUITES MIAMI/DORAL,HOTEL 3265 NORTH WEST 87 OPCO LP,3265 NW 87 AVE,MIAMI,33172,305-500-9100,502-489-3737,HOTL,96,Rooms,25.80489,-80.3372,874227.756140161,535328.515998907
-8920215.53319999,2972130.8016,506,0232340081130,STILES HOTEL,STILES HOTELS GROUP LLC,1120 COLLINS AVE,MIAMI BEACH,33139,305-864-3777,305-803-7381,HOTL,57,Rooms,25.7822,-80.13166,941904.873410329,527472.43656674
-8920168.03779999,2972435.3062,507,0232340080930,SUITES ON SOUTH BEACH,CAVANAUGH JAMES A,1330 COLLINS AVE,MIAMI BEACH,33139,305-531-9640,305-528-8000,HOTL,19,Rooms,25.78466,-80.13123,942039.372157078,528368.622110322
-8924293.09579999,2984067.9211,508,3022320040320,SUN AND SURF OF MIAMI,SUNMIRA INC,11102 BISCAYNE BLVD,MIAMI,33181,305-893-4540,786-877-3618,MOTL,25,Rooms,25.87872,-80.16829,929629.123027496,562476.499760576
-8919225.15209999,2985047.3125,509,1422350070260,SUN HARBOUR BOUTIQUE HOTEL,PICKERGILL TRADING LLC,9576 COLLINS AVE,SURFSIDE,33154,305-868-4447,305-893-9955,HOTL,19,Rooms,25.88663,-80.12276,944579.308350161,565451.038430907
-8938305.98369999,2969773.7419,510,1540120000200,SUNNYSIDE MOTEL,SUNNYSIDE MOTEL & TRAIL INC,6024 SW 8 ST,MIAMI,33144,,,MOTL,19,Rooms,25.76313,-80.29417,888464.59348008,520222.555725321
-8932765.31769999,2970806.5011,511,0141040130320,SUNSHINE INN OF MIAMI,PARADISE APARTMENTS LLC,25 SW 30 CT,MIAMI,33135,305-525-7825,305-525-7825,MOTL,10,Rooms,25.77149,-80.24439,904828.495463494,523350.08752799
-8936125.97,2970826.9793,512,0141060190010,SUNSHINE INN OF MIAMI,SUNSHINE INN OF MIAMI LLC,4839 W FLAGER ST,MIAMI,33134,305-525-7825,305-525-7825,MOTL,15,Rooms,25.77165,-80.27458,894892.875242911,523354.466784321
-8936174.51789999,2970828.4415,513,0141060220040,SUNSHINE INN OF MIAMI LLC,SUNSHINE INN OF MIAMI LLC,4871 W FLAGLER ST,CORAL GABLES,33134,305-525-7825,305-525-7825,MOTL,10,Rooms,25.77166,-80.27502,894749.327301662,523357.976291738
-8958715.6525,2935033.48,514,,SUPER 8 MOTEL,MIAMI LODGINGS LLC,1202 N KROME AVE,FLORIDA CITY,33034,305-245-0311,305-245-0311,MOTL,30,Rooms,25.48174,-80.47751,828526.373133663,417672.026902907
-8958763.76849999,2932216.9369,515,1678240201110,SUPER 8 MOTEL,MIAMI LODGINGS LLC,1196 N KROME AVE,FLORIDA CITY,33034,305-245-0311,305-245-0311,MOTL,22,Rooms,25.4589,-80.47794,828416.315610997,409369.678350158
-8919913.5479,2973441.9489,516,0232340190450,SURFCOMBER HOTEL (THE),CHISHOLM PROP S BCH INC,1717 COLLINS AVE,MIAMI BEACH,33139,305-532-7715,305-532-7715,HOTL,110,Rooms,25.7928,-80.12894,942772.091492161,531333.045643404
-8928150.07899999,2970788.2082,517,0102020001210,SYLVANIA HOTEL,MONJESS CORP,226 SW 5 AVE,MIAMI,33130,305-545-5916,,HOTL,50,Rooms,25.77134,-80.20293,918473.185693745,523376.686228074
-8935254.07769999,2969945.5215,518,0141050240150,TAMIAMI INN,DIAZ ROBERTO F,4391 SW 8 ST,MIAMI,33134,305-569-3049,305-569-3049,MOTL,7,Rooms,25.76452,-80.26675,897484.913037829,520776.924039155
-8918969.78259999,2992512.5876,519,3122020030210,THUNDERBIRD HOTEL,DEZER MGMT LTD,18401 COLLINS AVE,MIAMI BEACH,33160,305-931-7700,305-931-7700,MOTL,175,Rooms,25.94695,-80.12047,945186.451820914,587380.09037324
-8920240.65249999,2971649.8451,520,0242030040360,TIFFANY HOTEL,HOTEL ON COLLINS AVENUE LLC,801 COLLINS AVE,MIAMI BEACH,33139,305-531-2222,305-531-4411,HOTL,53,Rooms,25.77831,-80.13188,941839.936204247,526057.872138657
-8934773.11889999,2972228.192,521,0131320180080,TOWNEPLACE SUITES MIAMI AIRPORT,HOTELEX AIRPORT LLC,4021 NW 11TH ST,MIAMI,33126,305-779-0900,305-779-0900,HOTL,165,Rooms,25.78299,-80.26243,898869.311515745,527496.435206406
-8953738.68949999,2934820.2106,522,1079090351940,TOWNEPLACE SUITES MIAMI HOMESTEAD,HOMESTEAD HOLDINGS II LLC,935 NE 30 TERR,HOMESTEAD,33033,305-248-2001,814-278-7212,HOTL,97,Rooms,25.48001,-80.4328,843277.922698747,417103.805598408
-8919899.51199999,2973738.5866,523,0232260010010,TOWNHOUSE HOTEL,"TOWNHOUSE HOTEL, LLC",150 20 ST,MIAMI BEACH,33139,,,HOTL,71,Rooms,25.7952,-80.12882,942807.809924662,532205.374607407
-8958725.41329999,2934562.5473,524,1078120040050,TRADEWINDS MOTEL,SERIES HOSPITALITY LLC,846 N KROME AVE,HOMESTEAD,33030,772-801-1036,,MOTL,15,Rooms,25.47792,-80.4776,828502.891881414,416283.942736827
-8958275.74069999,2930241.8939,525,1679300020010,TRAVELODGE FLORIDA CITY-HOMESTEAD,JAI ASHIRWAAD LLC,409 SE 1 AVE,FLORIDA CITY,33034,305-248-9777,,MOTL,88,Rooms,25.44288,-80.47357,829885.811359663,403552.981322154
-8942497.19419999,2981996.498,526,2730030530010,TRIANGLE SUITES,GRAND AT DORAL TWO LTD,9751 W OKEECHOBEE RD,HIALEAH GARDENS,33015,305-445-7088,305-455-6964,HOTL,40,Rooms,25.86197,-80.33182,875890.662919328,556083.78223107
-8920105.13599999,2972949.573,527,0232340191090,TROPICS HOTEL,MID ATLANTIC MANAGEMENT INC,1550 COLLINS AVE,MIAMI BEACH,33139,305-531-0361,305-531-0361,HOTL,70,Rooms,25.78882,-80.13067,942215.335059747,529881.779845156
-8943352.73769999,2976034.8095,528,3530210010010,TRUMP DORAL (PRITIKIN),TRUMP ENDEAVOR 12 LLC,4400 NW 87 AVE,DORAL,33178,305-592-2000,305-592-2000,HOTL,48,Rooms,25.81377,-80.3395,873451.340698246,538551.771691486
-8943352.73769999,2976034.8095,529,3530210010010,TRUMP DORAL/TRUMP DORAL GOLF CLUB AND RESORT MIAMI,TRUMP ENDEAVOR 12 LLC,4400 NW 87 AVE,MIAMI,33178,305-592-2000,305-592-2000,HOTL,646,Rooms,25.81377,-80.3395,873451.340698246,538551.771691486
-8918965.36729999,2992046.0289,530,3122110690001,TRUMP INTL BEACH RESORT,18001 HOLDINGS LLC,18001 COLLINS AVE,SUNNY ISLES BEACH,33160,305-692-5600,,HOTL,375,Rooms,25.94318,-80.12043,945208.687340744,586010.312600993
-8920423.85789999,2984969.4776,531,1322270010240,TRYP BY WYNDHAM MIAMI BAY HARBOR,BAY VILLAGE CONDOS LLC,9540 W  BAY HARBOR DR,BAY HARBOR ISLANDS,33154,786-348-0064,,HOTL,105,Rooms,25.886,-80.13353,941040.372186579,565198.872596659
-8920901.52059999,2994099.6921,532,2812340660020,TURNBERRY ISLE MIAMI,TB ISLE RESORT LP,19999 W COUNTRY CLUB DR,AVENTURA,33180,305-932-6200,305-933-6200,HOTL,393,Rooms,25.95977,-80.13783,939453.16998041,592001.731720492
-8954030.16399999,2934929.1767,533,1079090000240,UPTOWN SUITES - HOMESTEAD,ITS HOMESTEAD LP,1071 NE 28 AVE,HOMESTEAD,33033,786-349-1888,,HOTL,127,Rooms,25.4809,-80.43542,842412.783352911,417421.289215408
-8920738.86279999,2971120.3141,534,0242030095030,URBANICA THE MERIDIAN HOTEL,418 MERIDIAN LLC,418 MERIDIAN AVE,MIAMI BEACH,33139,786-763-8934,786-571-1700,HOTL,41,Rooms,25.77402,-80.13636,940377.310848661,524491.249615736
-8926007.02069999,2979642.0746,535,0132070340010,VAGABOND HOTEL,GOOGIE ENTERPRISES LLC,7301 BISCAYNE BLVD,MIAMI,33138,786-409-7900,305-878-7521,HOTL,45,Rooms,25.84294,-80.18368,924647.467308413,549440.970713571
-8939749.64479999,2969791.8599,536,0140020000050,VENUS MOTEL,MAYA INVESTMENT INC,6891 SW 8 ST,MIAMI,33144,305-261-4142,305-261-4142,MOTL,16,Rooms,25.76328,-80.30713,884196.060678579,520253.18558532
-8920743.07259999,2971291.6696,537,0242030094930,VHC HOSPITALITY,VHC HOSPITALITY LLC,538 MERIDIAN AVE,MIAMI BEACH,33139,407-801-0100,407-801-0100,HOTL,12,Rooms,25.77541,-80.1364,940361.562520579,524994.99828016
-8920549.73319999,2971055.9987,538,0242030130010,VILLA ITALIA SOUTH BEACH MIAMI,CARIBBEAN INVESTMENT AMERICA LLC,354 WASHINGTON AVE,MIAMI BEACH,33139,305-604-1111,305-559-1600,HOTL,13,Rooms,25.7735,-80.13466,940937.686040245,524305.812322572
-8920098.81209999,2972106.5322,539,0232340080310,"VILLA, CASA CASAURINA",VMSB LLC,1116 OCEAN DR,MIAMI BEACH,33139,786-485-2200,786-485-2200,HOTL,10,Rooms,25.782,-80.13061,942250.389779661,527403.358620904
-8920375.27019999,2972704.3921,540,,VILLAS OF ESPANOLA WAY,ESPANOLA WAY CORP,506 ESPANOLA WAY,MIAMI BEACH,33139,305-673-2200,,HOTL,46,Rooms,25.78684,-80.13309,941421.567618411,529155.697307825
-8920089.86519999,2974175.0755,541,0232260010310,VINTRO HOTEL,HUSA LH VN LLC,2216 PARK AVE,MIAMI BEACH,33139,888-542-5565,,HOTL,50,Rooms,25.79873,-80.13053,942236.684098411,533484.812009156
-8920256.49269999,2971919.2716,542,0232340081320,VISCAY HOTEL,SZABO PETER,960 COLLINS AVE,MIAMI BEACH,33139,305-534-9678,305-534-9678,HOTL,23,Rooms,25.78049,-80.13202,941787.889064245,526849.718323991
-8926656.70309999,2970467.2293,543,0141381490001,W MIAMI HOTEL,SENYAR MIAMI HOLDING LLC,485 BRICKELL AVE,MIAMI,33131,866-781-9923,866-781-9923,HOTL,148,Rooms,25.76874,-80.18952,922893.989516161,522459.825200908
-8939152.14649999,2969805.4706,544,0140010056520,WAKAMBA MOTEL,"WAKAMBA, CORP",6495 SW 8 ST,MIAMI,33144,305-263-6811,786-269-3550,MOTL,8,Rooms,25.76339,-80.30178,885962.377683997,520302.528990574
-8920167.11649999,2971747.3334,545,0242030040280,WALDORF TOWERS HOTEL,ROOM MATE HOTEL INC,860 OCEAN DR,MIAMI BEACH,33139,305-755-5821,212-380-2719,HOTL,44,Rooms,25.7791,-80.13122,942055.436429411,526345.93717932
-8920375.27229999,2972048.7406,546,0242030090240,WASHINGTON PARK HOTEL,CRP/ TWG WASHINGTON AVE LLC,1040 WASHINGTON AVE,MIAMI BEACH,33139,516-286-0580,212-672-4730,HOTL,39,Rooms,25.78153,-80.13309,941434.248695411,527228.059430823
-8920379.75339999,2971997.1569,547,0242030090270,WASHINGTON PARK HOTEL,CRP/ TWG WASHINGTON AVE LLC,1020 WASHINGTON AVE,MIAMI BEACH,33139,212-672-4730,212-672-4730,HOTL,34,Rooms,25.78112,-80.13313,941422.000032246,527076.310718574
-8920372.93899999,2972075.7869,548,0242030090230,WASHINGTON PARK HOTEL,CRP/ TWG WASHINGTON AVE LLC,1050 WASHINGTON AVE,MIAMI BEACH,33139,305-674-1930,305-674-1930,HOTL,69,Rooms,25.78175,-80.13307,941440.623026494,527307.623576157
-8920376.73519999,2972031.9148,549,0242030090250,WASHINGTON PARK HOTEL,CRP/ TWG WASHINGTON AVENUE LLC,1036 WASHINGTON AVE,MIAMI BEACH,33139,212-672-4730,212-672-4730,HOTL,40,Rooms,25.7814,-80.1331,941430.24968766,527178.561498322
-8919274.10409999,2975984.0978,550,0232260012000,WESTOVER ARMS HOTEL,ROYAL PROPERTY INVESTMENT 2 INC,4100 COLLINS AVE,MIAMI BEACH,33140,305-635-8900,305-635-8900,HOTL,40,Rooms,25.81336,-80.1232,944612.435580496,538818.43585632
-8920305.31469999,2971670.8087,551,0242030040490,WHITELAW HOTEL & LOUNGE,MUSEUM WALK APARTMENTS LLC,808 COLLINS AVE,MIAMI BEACH,33139,3987000,,HOTL,49,Rooms,25.77848,-80.13246,941648.37293908,526118.249642573
-8941515.00379999,2975366.9601,552,3530270030090,WINGATE BY WYNDHAM MIAMI AIRPORT,3755 PROPERTY HOLDINGS LLC,3755 NW 78 AVE,DORAL,33166,786-547-2553,786-547-2553,HOTL,84,Rooms,25.80837,-80.32299,878892.458424911,536616.369066238
-8920032.90779999,2972519.8255,553,0232340080650,WINTER HAVEN,HHLP WINTER HAVEN LESSEE LLC,1400 OCEAN DR,MIAMI BEACH,33139,,215-238-1046,HOTL,71,Rooms,25.78535,-80.13002,942437.186978247,528619.747264236
-8926693.87259999,2975555.807,554,0132300050090,WISHES HOTEL BISCAYNE,ITALIA LLC,3530 BISCAYNE BLVD,MIAMI,33137,305-571-5115,305-673-2550,MOTL,32,Rooms,25.8099,-80.18986,922692.065707412,537418.96883899
-8948073.12039999,2952051.2116,555,,WOODSPRING SUITES MIAMI SOUTHWEST,GOLD COAST PREMIER PROPERTIES LLC,16055 SW 117 AVE,MIAMI,33137,,786-701-3584,HOTL,124,Rooms,25.61967,-80.38192,859831.596940413,467934.509054907
-8926508.57679999,2971324.7,556,0101100202010,YVE HOTEL MIAMI,HST DOWNTOWN MIAMI LLC,146 BISCAYNE BLVD,MIAMI,33132,240-744-1000,305-358-4555,HOTL,242,Rooms,25.77568,-80.1882,923316.385652997,524983.742069073
-8920068.64819999,2972725.4727,557,0232341930001,Z OCEAN,DE SOLEIL MANAGEMENT LLC,1437 COLLINS AVE,MIAMI BEACH,33139,305-672-4554,,HOTL,80,Rooms,25.78701,-80.13034,942327.543496747,529223.64927166
